 2018  712  536  1.0SL -62.929 -62.137 50.0  BRA  5 .20 2.0LBRA                1
 GAP=298       0.490       2.6     9.3  6.1 -0.1302E+01  0.6791E+01  0.5103E+01E
 2018-07-12-0535-12S.NSN___024                                                 6
 2018-07-12-0535-41M.NSN___020                                                 6
 OLDACT:UP  21-04-07 18:41 OP:rosa STATUS:               ID:20180712053512     3
 OLDACT:UP  21-04-07 18:40 OP:rosa STATUS:               ID:20180712053512     3
 OLDACT:UP  19-06-14 10:04 OP:rob  STATUS:               ID:20180712053512     3
 OLDACT:UP  19-06-11 13:26 OP:rob  STATUS:               ID:20180712053512     3
 OLDACT:ARG 19-06-06 12:26 OP:rob  STATUS:               ID:20180712053512     3
 ACTION:UP  21-06-22 14:41 OP:rosa STATUS:               ID:20180712053512     3
 ACTION:SPL 22-05-19 10:01 OP:hele STATUS:               ID:20180712053512     I
 STAT SP IPHASW D HRMM SECON CODA AMPLIT PERI AZIMU VELO AIN AR TRES W  DIS CAZ7
 BYE  HZ IP     D  536 12.87                             124   -.0201060.50  62 
 BYE  HE ES        536 21.74                             124   0.1801060.50  62 
 BYE  HE  IAML     536 22.62        67.1 0.20                         60.50  62 
 LVN  HZ IP     D  536 16.58                             112   -.2901094.00  72 
 LVN  HE ES        536 28.38                             112   -.0701094.00  72 
 TOW  HZ EP   1    536 22.69                             104   0.040 7139.0 123 
 TOW  HE ES        536 38.47                             104   0.02010139.0 123 
 FRE  HZ EP   2    536 28.57                             100   0.350 5182.0  65 
 FRE  HE ES        536 47.93                             100   -.14010182.0  65 
 JUBA HZ EP   2    536 30.39                              99   0.540 5194.0  68 
 JUBA HE ES   2    536 51.19                              99   0.290 5194.0  68 
 
 2018  713  027 49.4SL -61.664 -60.289 16.8  BRA  7 .20 1.7LBRA                1
 GAP=287       0.430       2.9     4.1  3.6 -0.2677E+01  0.3241E+01  0.2224E+01E
 2018-07-13-0027-00S.NSN___021                                                 6
 2018-07-13-0027-29M.NSN___020                                                 6
 OLDACT:UP  21-04-07 18:45 OP:rosa STATUS:               ID:20180713002700     3
 OLDACT:UP  21-04-07 18:44 OP:rosa STATUS:               ID:20180713002700     3
 OLDACT:UP  21-04-07 18:43 OP:rosa STATUS:               ID:20180713002700     3
 OLDACT:UP  19-06-14 10:05 OP:rob  STATUS:               ID:20180713002700     3
 OLDACT:UP  19-06-11 13:34 OP:rob  STATUS:               ID:20180713002700     3
 OLDACT:ARG 19-06-06 12:26 OP:rob  STATUS:               ID:20180713002700     3
 ACTION:UP  21-06-22 14:53 OP:rosa STATUS:               ID:20180713002700     3
 ACTION:SPL 22-05-19 10:01 OP:hele STATUS:               ID:20180713002700     I
 STAT SP IPHASW D HRMM SECON CODA AMPLIT PERI AZIMU VELO AIN AR TRES W  DIS CAZ7
 FRE  HZ IP     C  028  4.53                              93   0.0201092.30 132 
 FRE  HE ES        028 15.39                              93   -.1701092.30 132 
 FRE  HE  IAML     028 15.84        27.1 0.28                         92.30 132 
 JUBA HZ IP     C  028  6.49                              92   -.07010107.0 128 
 JUBA HE ES        028 19.25                              92   0.13010107.0 128 
 LVN  HZ EP        028  7.39                              92   0.14010111.0 183 
 LVN  HE ES        028 20.30                              92   -.01010111.0 183 
 BYE  HZ EP   2    028  8.92                              68   0.560 5119.0 200 
 BYE  HE ES   2    028 21.76                              68   -.470 5119.0 200 
 AST  HZ IP        028 19.32                              68   -.13010203.0 157 
 AST  HE ES        028 41.59                              68   0.17010203.0 157 
 TOW  HZ EP   2 D  028 21.08                              68   -.220 5216.0 173 
 TOW  HE ES   2    028 44.36                              68   -.250 5216.0 173 
 OHG  HZ EP   1    028 22.02                              68   -.030 7222.0 147 
 OHG  HN ES   2    028 46.09                              68   0.170 5222.0 147 
 
 2018  713  835 58.3 L                       BRA        2.8CBRA                1
 2018-07-13-0835-13S.NSN___024                                                 6
 2018-07-13-0835-38M.NSN___020                                                 6
 OLDACT:UP  21-04-07 18:50 OP:rosa STATUS:               ID:20180713083513     3
 OLDACT:UP  21-04-07 18:48 OP:rosa STATUS:               ID:20180713083513     3
 OLDACT:UP  21-04-07 18:47 OP:rosa STATUS:               ID:20180713083513     3
 OLDACT:UP  21-04-07 18:46 OP:rosa STATUS:               ID:20180713083513     3
 OLDACT:UP  19-06-14 10:10 OP:rob  STATUS:               ID:20180713083513     3
 OLDACT:UP  19-06-11 13:39 OP:rob  STATUS:               ID:20180713083513     3
 OLDACT:ARG 19-06-06 12:26 OP:rob  STATUS:               ID:20180713083513     3
 ACTION:UP  21-04-07 18:50 OP:rosa STATUS:               ID:20180713083513     3
 ACTION:SPL 22-05-19 10:01 OP:hele STATUS:               ID:20180713083513     I
 STAT SP IPHASW D HRMM SECON CODA AMPLIT PERI AZIMU VELO AIN AR TRES W  DIS CAZ7
 AST  HN ES   2    836 31.42                              18                    
 OHG  HE ES   2    836 39.05                              18                    
 AST  HZ EP   1    836 15.04   93                         18          90.00     
 OHG  HZ EP        836 19.46   73                         18          127.0     
 
 2018  714  132 43.2SL -60.724 -56.961 95.6  BRA  6 .30 1.6LBRA                1
 GAP=326       0.550       6.7    14.0  5.6 -0.3800E+02  0.1872E+02 -0.1869E+02E
 2018-07-14-0132-14S.NSN___024                                                 6
 2018-07-14-0132-23M.NSN___020                                                 6
 OLDACT:UP  21-06-22 14:56 OP:rosa STATUS:               ID:20180714013214     3
 OLDACT:UP  21-06-22 14:55 OP:rosa STATUS:               ID:20180714013214     3
 OLDACT:UP  21-04-07 18:56 OP:rosa STATUS:               ID:20180714013214     3
 OLDACT:UP  21-04-07 18:54 OP:rosa STATUS:               ID:20180714013214     3
 OLDACT:UP  21-04-07 18:53 OP:rosa STATUS:               ID:20180714013214     3
 OLDACT:UP  19-06-14 10:21 OP:rob  STATUS:               ID:20180714013214     3
 OLDACT:UP  19-06-14 10:20 OP:rob  STATUS:               ID:20180714013214     3
 OLDACT:UP  19-06-11 15:11 OP:rob  STATUS:               ID:20180714013214     3
 OLDACT:ARG 19-06-06 12:26 OP:rob  STATUS:               ID:20180714013214     3
 ACTION:UP  21-06-22 14:57 OP:rosa STATUS:               ID:20180714013214     3
 ACTION:SPL 22-05-19 10:01 OP:hele STATUS:               ID:20180714013214     I
 STAT SP IPHASW D HRMM SECON CODA AMPLIT PERI AZIMU VELO AIN AR TRES W  DIS CAZ7
 JUBA HZ EP        133 13.53                             114   0.10010191.0 208 
 JUBA HE ES   2    133 36.47                             114    1.00 5191.0 208 
 FRE  HZ EP        133 13.96                             113   -.10010197.0 212 
 FRE  HE ES        133 36.42                             113   -.14010197.0 212 
 FRE  HE  IAML     133 38.83         4.7 0.16                         197.0 212 
 LVN  HZ EP   1    133 24.61                             106   -.200 7282.0 219 
 LVN  HE ES   2    133 54.92                             106   -.240 5282.0 219 
 OHG  HZ EP   1    133 26.06                             105   -.250 7294.0 189 
 OHG  HE ES   2    133 57.51                             105   -.240 5294.0 189 
 AST  HZ EP        133 27.88                              66   0.24010304.0 197 
 AST  HE ES   2    133 59.92                              66   -.140 5304.0 197 
 BYE  HZ EP   1    133 28.14                              66   0.040 7308.0 224 
 BYE  HN ES   2    134  0.98                              66   0.130 5308.0 224 
 
 2018  714 1141 17.8SL -60.668 -57.190 95.1  BRA  7 .30 1.2LBRA                1
 GAP=326       0.600       4.7    11.2  5.1 -0.6618E+01 -0.1477E+02 -0.8086E+01E
 2018-07-14-1140-48S.NSN___024                                                 6
 2018-07-14-1140-58M.NSN___020                                                 6
 OLDACT:UP  21-06-22 14:58 OP:rosa STATUS:               ID:20180714114048     3
 OLDACT:UP  21-06-22 14:58 OP:rosa STATUS:               ID:20180714114048     3
 OLDACT:UP  21-04-07 19:11 OP:rosa STATUS:               ID:20180714114048     3
 OLDACT:UP  21-04-07 19:10 OP:rosa STATUS:               ID:20180714114048     3
 OLDACT:UP  21-04-07 19:10 OP:rosa STATUS:               ID:20180714114048     3
 OLDACT:UP  21-04-07 19:09 OP:rosa STATUS:               ID:20180714114048     3
 OLDACT:UP  21-04-07 19:09 OP:rosa STATUS:               ID:20180714114048     3
 OLDACT:UP  21-04-07 19:07 OP:rosa STATUS:               ID:20180714114048     3
 OLDACT:UP  19-06-14 10:21 OP:rob  STATUS:               ID:20180714114048     3
 OLDACT:UP  19-06-11 15:17 OP:rob  STATUS:               ID:20180714114048     3
 OLDACT:ARG 19-06-06 12:26 OP:rob  STATUS:               ID:20180714114048     3
 ACTION:UP  21-06-22 14:58 OP:rosa STATUS:               ID:20180714114048     3
 ACTION:SPL 22-05-19 10:01 OP:hele STATUS:               ID:20180714114048     I
 STAT SP IPHASW D HRMM SECON CODA AMPLIT PERI AZIMU VELO AIN AR TRES W  DIS CAZ7
 JUBA HZ EP       1141 48.18                             113   0.17010192.0 204 
 JUBA HE ES   1   1142 10.75                             113   0.700 7192.0 204 
 FRE  HZ EP       1141 48.50                             113   -.01010196.0 208 
 FRE  HE ES       1142 10.68                             113   -.23010196.0 208 
 FRE  HE  IAML    1142 13.19         6.3 0.20                         196.0 208 
 LVN  HZ EP       1141 58.84                             106   -.20010279.0 216 
 LVN  HE ES       1142 29.07                             106   -.07010279.0 216 
 OHG  HZ EP       1142  1.33                             105   -.11010298.0 187 
 OHG  HE ES       1142 33.20                             105   -.09010298.0 187 
 OHG  HE  IAML    1142 35.54         0.3 0.36                         298.0 187 
 BYE  HZ EP   1   1142  1.97                             105   -.240 7304.0 221 
 BYE  HE ES   2   1142 35.05                             105   0.440 5304.0 221 
 AST  HZ IP     C 1142  2.55                             105   -.01010307.0 194 
 AST  HZ EP     C 1142  2.55                             105          307.0 194 
 AST  HE ES   2   1142 34.90                             105   -.320 5307.0 194 
 TOW  HZ EP       1142  8.52                              66   0.32010353.0 201 
 TOW  HN ES   2   1142 44.87                              66   -.110 5353.0 201 
 
 2018  714 15 6 38.4FL -64.615 -64.355 0.00  BRA  3 .20 0.7LBRA                1
 GAP=357       0.460      93.6   233.1 24.4 -0.1114E+05 -0.5021E+04  0.1247E+03E
 2018-07-14-1506-18S.NSN___024                                                 6
 2018-07-14-1506-18M.NSN___020                                                 6
 OLDACT:UP  21-04-07 19:20 OP:rosa STATUS:               ID:20180714150618     3
 OLDACT:UP  21-04-07 19:20 OP:rosa STATUS:               ID:20180714150618     3
 OLDACT:UP  21-04-07 19:19 OP:rosa STATUS:               ID:20180714150618     3
 OLDACT:UP  21-04-07 19:19 OP:rosa STATUS:               ID:20180714150618     3
 OLDACT:UP  21-04-07 19:18 OP:rosa STATUS:               ID:20180714150618     3
 OLDACT:UP  21-04-07 19:17 OP:rosa STATUS:               ID:20180714150618     3
 OLDACT:UP  19-06-14 10:27 OP:rob  STATUS:               ID:20180714150618     3
 OLDACT:UP  19-06-11 15:24 OP:rob  STATUS:               ID:20180714150618     3
 OLDACT:ARG 19-06-06 12:26 OP:rob  STATUS:               ID:20180714150618     3
 ACTION:UP  21-06-22 15:01 OP:rosa STATUS:               ID:20180714150618     3
 ACTION:SPL 22-05-19 10:01 OP:hele STATUS:               ID:20180714150618     I
 STAT SP IPHASW D HRMM SECON CODA AMPLIT PERI AZIMU VELO AIN AR TRES W  DIS CAZ7
 TOW  HZ EP   1   15 7 15.11                              17   -.020 7250.0  65 
 TOW  HE ES       15 7 41.84                              17   -.13010250.0  65 
 AST  HZ EP   1   15 7 23.35                              16   0.070 7312.0  65 
 AST  HE ES   2   15 7 56.61                              16   0.550 5312.0  65 
 AST  HE  IAML    15 8  1.32         0.3 0.28                         312.0  65 
 OHG  HZ EP   1   15 7 27.76                              16   -.060 7347.0  68 
 
 2018  716 2340 26.4SL -64.325 -60.228 0.00  BRA  3 .10 0.7LBRA                1
 GAP=328       0.340      21.2    40.9 15.5  0.7949E+03 -0.6028E+03 -0.3197E+03E
 2018-07-16-2339-44S.NSN___021                                                 6
 2018-07-16-2340-06M.NSN___020                                                 6
 OLDACT:UP  21-06-22 15:04 OP:rosa STATUS:               ID:20180716233944     3
 OLDACT:UP  21-04-07 19:23 OP:rosa STATUS:               ID:20180716233944     3
 OLDACT:UP  21-04-07 18:14 OP:rosa STATUS:               ID:20180716233944     3
 OLDACT:UP  19-06-14 10:34 OP:rob  STATUS:               ID:20180716233944     3
 OLDACT:UP  19-06-11 15:36 OP:rob  STATUS:               ID:20180716233944     3
 OLDACT:ARG 19-06-06 12:26 OP:rob  STATUS:               ID:20180716233944     3
 ACTION:UP  21-06-22 15:04 OP:rosa STATUS:               ID:20180716233944     3
 ACTION:SPL 22-05-19 10:01 OP:hele STATUS:               ID:20180716233944     I
 STAT SP IPHASW D HRMM SECON CODA AMPLIT PERI AZIMU VELO AIN AR TRES W  DIS CAZ7
 TOW  HZ EP   1   2340 42.37                              31   0.130 784.50  15 
 TOW  HE ES   2   2340 53.66                              31   -.160 584.50  15 
 AST  HZ EP   1   2340 49.23                              31   -.150 7134.0  35 
 AST  HE ES   2   2341  6.31                              31   0.140 5134.0  35 
 OHG  HZ EP   1   2340 53.01                              29   0.010 7160.0  47 
 OHG  HN ES   2   2341 12.46                              29   0.020 5160.0  47 
 OHG  HN  IAML    2341 16.06         1.1 0.40                         160.0  47 
 
 2018  717  427 17.4BL -64.647 -61.920 90.9  BRA  3 .10 0.9LBRA                1
 GAP=348       0.340      58.1    53.2 62.9 -0.2799E+04 -0.2741E+04  0.3545E+04E
 2018-07-17-0426-21S.NSN___021                                                 6
 2018-07-17-0426-57M.NSN___020                                                 6
 OLDACT:UP  21-06-22 15:06 OP:rosa STATUS:               ID:20180717042621     3
 OLDACT:UP  21-04-07 19:25 OP:rosa STATUS:               ID:20180717042621     3
 OLDACT:UP  21-04-07 18:19 OP:rosa STATUS:               ID:20180717042621     3
 OLDACT:UP  21-04-07 18:18 OP:rosa STATUS:               ID:20180717042621     3
 OLDACT:UP  21-04-07 18:17 OP:rosa STATUS:               ID:20180717042621     3
 OLDACT:UP  21-04-07 18:16 OP:rosa STATUS:               ID:20180717042621     3
 OLDACT:UP  19-06-14 10:40 OP:rob  STATUS:               ID:20180717042621     3
 OLDACT:UP  19-06-11 15:47 OP:rob  STATUS:               ID:20180717042621     3
 OLDACT:ARG 19-06-06 12:26 OP:rob  STATUS:               ID:20180717042621     3
 ACTION:UP  21-06-22 16:55 OP:rosa STATUS:               ID:20180717042621     3
 ACTION:SPL 22-05-19 10:01 OP:hele STATUS:               ID:20180717042621     I
 STAT SP IPHASW D HRMM SECON CODA AMPLIT PERI AZIMU VELO AIN AR TRES W  DIS CAZ7
 TOW  HZ EP   2    427 41.01                             116   -.250 5157.0  42 
 TOW  HE ES   2    427 58.85                             116   0.140 5157.0  42 
 AST  HZ EP   2    427 48.12                             109   0.190 5215.0  48 
 AST  HE ES   2    428 10.13                             109   -.110 5215.0  48 
 OHG  HZ EP   1    427 51.55                             107   0.020 7246.0  55 
 OHG  HE ES   2    428 16.44                             107   -.030 5246.0  55 
 OHG  HE  IAML     428 18.38         0.7 0.24                         246.0  55 
 
 2018  723 1620  2.2SL -61.455 -57.163 68.2  BRA  5 .30 1.9LBRA                1
 GAP=315       0.640       8.5    14.4 15.9  0.2995E+02 -0.1417E+03 -0.6530E+02E
 2018-07-23-1619-22S.NSN___024                                                 6
 2018-07-23-1619-42M.NSN___020                                                 6
 OLDACT:UP  21-06-22 16:56 OP:rosa STATUS:               ID:20180723161922     3
 OLDACT:UP  21-04-07 18:20 OP:rosa STATUS:               ID:20180723161922     3
 OLDACT:UP  19-06-14 10:42 OP:rob  STATUS:               ID:20180723161922     3
 OLDACT:UP  19-06-11 15:56 OP:rob  STATUS:               ID:20180723161922     3
 OLDACT:ARG 19-06-06 12:26 OP:rob  STATUS:               ID:20180723161922     3
 ACTION:UP  21-06-22 16:57 OP:rosa STATUS:               ID:20180723161922     3
 ACTION:SPL 22-05-19 10:01 OP:hele STATUS:               ID:20180723161922     I
 STAT SP IPHASW D HRMM SECON CODA AMPLIT PERI AZIMU VELO AIN AR TRES W  DIS CAZ7
 JUBA HZ EP       1620 21.60                             116   -.34010118.0 222 
 JUBA HE ES   2   1620 36.59                             116   0.250 5118.0 222 
 FRE  HZ EP       1620 22.91                             114   -.10010126.0 228 
 FRE  HE ES       1620 38.37                             114   0.19010126.0 228 
 FRE  HE  IAML    1620 39.21        19.8 0.24                         126.0 228 
 OHG  HZ EP       1620 33.84                             104   0.06010212.0 190 
 OHG  HE ES   2   1620 56.81                             104   -.010 5212.0 190 
 LVN  HZ EP   1   1620 34.41                             104   0.090 7216.0 230 
 LVN  HN ES   2   1620 57.17                             104   -.590 5216.0 230 
 BYE  HZ EP   1   1620 38.87                             102   0.590 7246.0 235 
 BYE  HE ES   2   1621  4.16                             102   -.440 5246.0 235 
 
