 2018  430 15 7 44.3BL -63.090 -58.632172.0  BRA  3 .30 1.3LBRA 2.1CBRA        1
 GAP=260       0.620      64.8    55.1 15.8 -0.3196E+04  0.6572E+03 -0.8180E+03E
 2018-04-30-1507-00S.NSN___024                                                 6
 2018-04-30-1507-24M.NSN___023                                                 6
 OLDACT:UP  21-06-22 12:19 OP:rosa STATUS:               ID:20180430150700     3
 OLDACT:UP  21-04-06 18:53 OP:rosa STATUS:               ID:20180430150700     3
 OLDACT:UP  21-04-06 18:51 OP:rosa STATUS:               ID:20180430150700     3
 OLDACT:UP  21-04-06 18:39 OP:rosa STATUS:               ID:20180430150700     3
 OLDACT:UP  19-06-13 15:56 OP:rob  STATUS:               ID:20180430150700     3
 OLDACT:UP  19-06-10 13:22 OP:rob  STATUS:               ID:20180430150700     3
 OLDACT:ARG 19-06-06 12:26 OP:rob  STATUS:               ID:20180430150700     3
 ACTION:UP  21-06-22 12:20 OP:rosa STATUS:               ID:20180430150700     3
 ACTION:SPL 22-05-19 10:01 OP:hele STATUS:               ID:20180430150700     I
 STAT SP IPHASW D HRMM SECON CODA AMPLIT PERI AZIMU VELO AIN AR TRES W  DIS CAZ7
 AST  HZ EP       15 8  6.46                             171   -.2601026.60 188 
 AST  HN ES   2   15 8 23.68                             171   0.590 526.60 188 
 OHG  HZ EP   1   15 8  7.56   47                        165   0.360 745.10 125 
 OHG  HE ES   2   15 8 23.45                             165   -.470 545.10 125 
 OHG  HE  IAML    15 8 23.94         3.6 0.32                         45.10 125 
 TOW  HZ EP       15 8  8.78   44                        154   0.0501080.30 225 
 TOW  HN ES   2   15 8 26.45                             154   -.120 580.30 225 
 
 2018  519  721 30.9SL -62.972 -61.803 2.70  BRA  6 .30 1.1LBRA                1
 GAP=282       0.550       2.6    10.4  4.2 -0.3108E+01 -0.1223E+02  0.1497E+01E
 2018-05-19-0720-41S.NSN___027                                                 6
 2018-05-19-0721-11M.NSN___023                                                 6
 OLDACT:UP  21-06-22 12:28 OP:rosa STATUS:               ID:20180519072041     3
 OLDACT:UP  21-04-06 19:22 OP:rosa STATUS:               ID:20180519072041     3
 OLDACT:UP  19-06-13 16:30 OP:rob  STATUS:               ID:20180519072041     3
 OLDACT:UP  19-06-10 15:58 OP:rob  STATUS:               ID:20180519072041     3
 OLDACT:ARG 19-06-06 12:26 OP:rob  STATUS:               ID:20180519072041     3
 ACTION:UP  21-06-22 12:28 OP:rosa STATUS:               ID:20180519072041     3
 ACTION:SPL 22-05-19 10:01 OP:hele STATUS:               ID:20180519072041     I
 STAT SP IPHASW D HRMM SECON CODA AMPLIT PERI AZIMU VELO AIN AR TRES W  DIS CAZ7
 BYE  HZ EP        721 40.85                              62   0.0701049.40  47 
 BYE  HE ES   2    721 47.37                              62   -.600 549.40  47 
 BYE  HE  IAML     721 48.46        16.0 0.28                         49.40  47 
 DCP  HZ EP        721 42.35                              62   0.1301057.00  91 
 DCP  HE ES   2    721 50.46                              62   -.010 557.00  91 
 LVN  HZ EP        721 45.42                              43   -.1201079.90  65 
 LVN  HE ES   4    721 54.86                              43   -1.35 079.90  65 
 TOW  HZ EP        721 51.63                              43   -.06010123.0 125 
 TOW  HE ES   2    722  6.58                              43   -.270 5123.0 125 
 FRE  HZ EP   2    721 58.22                              39   0.090 5169.0  61 
 FRE  HE ES   2    722 17.69                              39   -.300 5169.0  61 
 JUBA HZ EP   2    721 59.71                              39   0.020 5181.0  64 
 JUBA HE ES   2    722 21.66                              39   0.960 5181.0  64 
 
 2018  521 1334  2.4SL -61.172 -54.334 88.4  BRA  5 .20 1.8LBRA                1
 GAP=333       0.430       6.3    12.3  4.9 -0.2281E+02 -0.2058E+02  0.2281E+01E
 2018-05-21-1333-43S.NSN___027                                                 6
 2018-05-21-1333-42M.NSN___023                                                 6
 OLDACT:UP  21-06-22 12:29 OP:rosa STATUS:               ID:20180521133343     3
 OLDACT:UP  21-04-06 19:23 OP:rosa STATUS:               ID:20180521133343     3
 OLDACT:UP  21-04-06 19:22 OP:rosa STATUS:               ID:20180521133343     3
 OLDACT:UP  19-06-13 16:31 OP:rob  STATUS:               ID:20180521133343     3
 OLDACT:UP  19-06-10 16:06 OP:rob  STATUS:               ID:20180521133343     3
 OLDACT:ARG 19-06-06 12:26 OP:rob  STATUS:               ID:20180521133343     3
 ACTION:UP  21-06-22 12:29 OP:rosa STATUS:               ID:20180521133343     3
 ACTION:SPL 22-05-19 10:01 OP:hele STATUS:               ID:20180521133343     I
 STAT SP IPHASW D HRMM SECON CODA AMPLIT PERI AZIMU VELO AIN AR TRES W  DIS CAZ7
 JUBA HE ES   2   1335  8.72                             106   0.170 5258.0 241 
 FRE  HZ EP       1334 42.18                             105   -.10010271.0 243 
 FRE  HE ES   2   1335 11.47                             105   0.100 5271.0 243 
 OHG  HZ EP       1334 46.63                             103   0.19010303.0 216 
 OHG  HE ES   2   1335 18.23                             103   -.340 5303.0 216 
 OHG  HE  IAML    1335 20.17         3.3 0.28                         303.0 216 
 AST  HZ EP   1   1334 50.12                             102   0.090 7330.0 221 
 AST  HE ES   2   1335 24.49                             102   -.290 5330.0 221 
 TOW  HZ EP       1334 57.54                              66   -.170 9390.0 224 
 TOW  HN ES   2   1335 38.47                              66   0.400 5390.0 224 
 
 2018  525  557 45.7FL -61.487 -58.738 0.20  BRA  4 .20 1.6LBRA                1
 GAP=315       0.490      48.0    36.1 16.0  0.1667E+04  0.5582E+03  0.7622E+03E
 2018-05-25-0556-58S.NSN___027                                                 6
 2018-05-25-0557-26M.NSN___023                                                 6
 OLDACT:UP  21-06-22 12:31 OP:rosa STATUS:               ID:20180525055658     3
 OLDACT:UP  21-04-06 21:58 OP:rosa STATUS:               ID:20180525055658     3
 OLDACT:UP  21-04-06 21:57 OP:rosa STATUS:               ID:20180525055658     3
 OLDACT:UP  19-06-13 16:32 OP:rob  STATUS:               ID:20180525055658     3
 OLDACT:UP  19-06-10 16:24 OP:rob  STATUS:               ID:20180525055658     3
 OLDACT:ARG 19-06-06 12:26 OP:rob  STATUS:               ID:20180525055658     3
 ACTION:UP  21-06-22 12:31 OP:rosa STATUS:               ID:20180525055658     3
 ACTION:SPL 22-05-19 10:01 OP:hele STATUS:               ID:20180525055658     I
 STAT SP IPHASW D HRMM SECON CODA AMPLIT PERI AZIMU VELO AIN AR TRES W  DIS CAZ7
 FRE  HZ EP        557 58.72                              40   -.0601081.00 188 
 FRE  HE ES   2    558  7.98                              40   -.320 581.00 188 
 FRE  HE  IAML     558  9.06        27.0 0.28                         81.00 188 
 JUBA HZ EP        557 59.39                              40   0.2301083.70 177 
 JUBA HE ES   2    558  8.89                              40   -.070 583.70 177 
 LVN  HZ EP        558  9.44                              40   -.16010157.0 213 
 LVN  HE ES   2    558 26.87                              40   -.160 5157.0 213 
 BYE  HZ EP   1    558 12.90                              40   -.050 7180.0 222 
 BYE  HN ES   2    558 33.43                              40   0.610 5180.0 222 
 
 2018  526 1751  2.4SL -61.499 -55.124 68.9  BRA  7 .20 2.5LBRA                1
 GAP=327       0.380       6.9    18.7 29.0  0.8667E+02 -0.4609E+03 -0.1384E+03E
 0.0       7.0    -102.0 40.0 40.0 70.0  0.0  0.1           TES FPFIT    F
 2018-05-26-1750-32S.NSN___027                                                 6
 2018-05-26-1750-42M.NSN___023                                                 6
 OLDACT:UP  21-06-22 12:32 OP:rosa STATUS:               ID:20180526175032     3
 OLDACT:UP  21-04-06 22:04 OP:rosa STATUS:               ID:20180526175032     3
 OLDACT:UP  19-06-13 16:33 OP:rob  STATUS:               ID:20180526175032     3
 OLDACT:UP  19-06-10 16:36 OP:rob  STATUS:               ID:20180526175032     3
 OLDACT:ARG 19-06-06 12:26 OP:rob  STATUS:               ID:20180526175032     3
 ACTION:UP  21-06-22 12:35 OP:rosa STATUS:               ID:20180526175032     3
 ACTION:SPL 22-05-19 10:01 OP:hele STATUS:               ID:20180526175032     I
 STAT SP IPHASW D HRMM SECON CODA AMPLIT PERI AZIMU VELO AIN AR TRES W  DIS CAZ7
 JUBA HZ EP   2 C 1751 32.65                             105   -.280 5204.0 245 
 JUBA HN ES   2   1751 55.69                             105   0.460 5204.0 245 
 FRE  HZ IP     D 1751 34.60                             104   -.04010217.0 247 
 FRE  HE ES   2   1751 58.07                             104   -.120 5217.0 247 
 FRE  HE  IAML    1751 58.89        35.6 0.28                         217.0 247 
 OHG  HZ IP     C 1751 38.82                             102   0.05010249.0 214 
 OHG  HE ES   2   1752  4.96                             102   -.380 5249.0 214 
 AST  HZ IP       1751 42.30                             100   0.06010275.0 221 
 AST  HN ES   4   1752 10.22                             100   -1.12 0275.0 221 
 LVN  HZ EP       1751 45.99                              99   -.05010304.0 242 
 TOW  HZ IP     C 1751 50.14                              98   0.11010334.0 224 
 BYE  HZ EP       1751 50.49                              98   -.04010338.0 245 
 BYE  HE ES   4   1752 28.42                              98    2.74 0338.0 245 
 
 2018  527 2315 53.5FL -62.608 -61.507 14.6  BRA  6 .30 1.3LBRA                1
 GAP=290       0.690       3.2    13.5  6.4 -0.1159E+02  0.8307E+01 -0.6994E+01E
 2018-05-27-2315-00S.NSN___027                                                 6
 2018-05-27-2315-34M.NSN___023                                                 6
 OLDACT:UP  21-06-22 12:37 OP:rosa STATUS:               ID:20180527231500     3
 OLDACT:UP  21-04-06 22:07 OP:rosa STATUS:               ID:20180527231500     3
 OLDACT:UP  19-06-13 16:35 OP:rob  STATUS:               ID:20180527231500     3
 OLDACT:UP  19-06-10 16:58 OP:rob  STATUS:               ID:20180527231500     3
 OLDACT:ARG 19-06-06 12:26 OP:rob  STATUS:               ID:20180527231500     3
 ACTION:UP  21-06-22 12:38 OP:rosa STATUS:               ID:20180527231500     3
 ACTION:SPL 22-05-19 10:01 OP:hele STATUS:               ID:20180527231500     I
 STAT SP IPHASW D HRMM SECON CODA AMPLIT PERI AZIMU VELO AIN AR TRES W  DIS CAZ7
 BYE  HZ IP       2315 57.95                             118   0.3101021.90 108 
 BYE  HE ES   2   2316  0.77                             118   0.100 521.90 108 
 BYE  HE  IAML    2316  1.32        64.8 0.20                         21.90 108 
 LVN  HZ IP       2316  2.22                              98   -.3501057.80  97 
 LVN  HE ES   2   2316  8.46                              98   -.740 557.80  97 
 DCP  HZ IP       2316  3.09                              98   0.3201059.10 135 
 DCP  HN ES   2   2316 10.09                              98   0.540 559.10 135 
 FRE  HZ EP       2316 13.99                              93   -.13010139.0  72 
 FRE  HE ES   2   2316 29.38                              93   0.190 5139.0  72 
 TOW  HZ IP     D 2316 14.03                              93   -.25010140.0 142 
 TOW  HE ES       2316 29.34                              93   -.11010140.0 142 
 JUBA HZ EP       2316 16.05                              69   0.03010153.0  76 
 JUBA HE ES   2   2316 33.09                              69   0.620 5153.0  76 
 
 2018  531 1119 14.7FL -62.857 -62.120 14.8  BRA  6 .30 1.4LBRA                1
 GAP=301       0.590       3.1    12.0  7.0  0.2368E+01 -0.9457E+01  0.3544E+00E
 2018-05-31-1118-25S.NSN___027                                                 6
 2018-05-31-1118-55M.NSN___023                                                 6
 OLDACT:UP  21-06-22 12:38 OP:rosa STATUS:               ID:20180531111825     3
 OLDACT:UP  21-04-06 22:10 OP:rosa STATUS:               ID:20180531111825     3
 OLDACT:UP  19-06-13 16:36 OP:rob  STATUS:               ID:20180531111825     3
 OLDACT:UP  19-06-10 17:04 OP:rob  STATUS:               ID:20180531111825     3
 OLDACT:ARG 19-06-06 12:26 OP:rob  STATUS:               ID:20180531111825     3
 ACTION:UP  21-06-22 12:38 OP:rosa STATUS:               ID:20180531111825     3
 ACTION:SPL 22-05-19 10:01 OP:hele STATUS:               ID:20180531111825     I
 STAT SP IPHASW D HRMM SECON CODA AMPLIT PERI AZIMU VELO AIN AR TRES W  DIS CAZ7
 BYE  HZ EP     C 1119 23.74                              99   0.2001056.30  68 
 BYE  HE ES   2   1119 30.00                              99   -.020 556.30  68 
 BYE  HE  IAML    1119 30.52        27.3 0.36                         56.30  68 
 DCP  HZ EP       1119 26.16                              96   0.0301074.50 101 
 DCP  HE ES   2   1119 34.84                              96   0.330 574.50 101 
 LVN  HZ EP       1119 28.21                              95   -.2701091.10  77 
 LVN  HE ES   2   1119 37.95                              95   -.620 591.10  77 
 TOW  HZ IP     D 1119 35.91                              93   0.00010143.0 126 
 TOW  HE ES       1119 51.53                              93   0.11010143.0 126 
 FRE  HN ES   2   1120  0.22                              69   0.750 5178.0  67 
 OHG  HZ EP   1   1119 46.03                              69   -.060 7219.0 106 
 OHG  HN ES   2   1120  8.45                              69   -.590 5219.0 106 
 
 2018  6 7 18 9 56.1FL -61.830 -61.022 64.8  BRA  4 .10 0.8LBRA                1
 GAP=289       0.350      20.4    18.7 44.4 -0.3575E+03  0.7671E+03 -0.8598E+03E
 2018-06-07-1809-13S.NSN___024                                                 6
 2018-06-07-1809-36M.NSN___023                                                 6
 OLDACT:UP  21-06-22 12:40 OP:rosa STATUS:               ID:20180607180913     3
 OLDACT:UP  21-04-07 16:48 OP:rosa STATUS:               ID:20180607180913     3
 OLDACT:UP  21-04-06 22:24 OP:rosa STATUS:               ID:20180607180913     3
 OLDACT:UP  19-06-13 17:05 OP:rob  STATUS:               ID:20180607180913     3
 OLDACT:UP  19-06-10 18:19 OP:4    STATUS:               ID:20180607180913     3
 OLDACT:ARG 19-06-06 12:26 OP:rob  STATUS:               ID:20180607180913     3
 ACTION:UP  21-06-22 12:41 OP:rosa STATUS:               ID:20180607180913     3
 ACTION:SPL 22-05-19 10:01 OP:hele STATUS:               ID:20180607180913     I
 STAT SP IPHASW D HRMM SECON CODA AMPLIT PERI AZIMU VELO AIN AR TRES W  DIS CAZ7
 BYE  HZ EP       1810 11.71                             120   0.0601093.30 182 
 LVN  HZ EP       1810 12.23                             118   0.0001098.50 161 
 LVN  HE ES   2   1810 23.87                             118   -.170 598.50 161 
 FRE  HZ EP   1   1810 14.07                             114   -.140 7116.0 112 
 FRE  HN ES   2 C 1810 27.46                             114   -.000 5116.0 112 
 FRE  HN  IAML    1810 27.89         2.1 0.12                         116.0 112 
 JUBA HN ES   2   1810 30.93                             110   0.240 5132.0 111 
 
 2018  6 8  338 35.1SL -63.660 -62.620 18.1  BRA  7 .30 2.8LBRA                1
 GAP=307       0.500      15.6    67.9 80.1  0.1025E+04 -0.5379E+04 -0.1214E+04E
 40.0      40.0    -142.0  1.0  0.0  1.0  0.0  0.1           TES FPFIT    F
 2018-06-08-0337-55S.NSN___021                                                 6
 2018-06-08-0338-15M.NSN___020                                                 6
 OLDACT:UP  21-06-22 12:43 OP:rosa STATUS:               ID:20180608033755     3
 OLDACT:UP  21-06-22 12:43 OP:rosa STATUS:               ID:20180608033755     3
 OLDACT:UP  21-04-07 16:50 OP:rosa STATUS:               ID:20180608033755     3
 OLDACT:UP  21-04-07 16:49 OP:rosa STATUS:               ID:20180608033755     3
 OLDACT:UP  21-04-06 22:29 OP:rosa STATUS:               ID:20180608033755     3
 OLDACT:UP  21-04-06 22:27 OP:rosa STATUS:               ID:20180608033755     3
 OLDACT:UP  19-06-13 17:11 OP:rob  STATUS:               ID:20180608033755     3
 OLDACT:UP  19-06-10 18:27 OP:4    STATUS:               ID:20180608033755     3
 OLDACT:ARG 19-06-06 12:26 OP:rob  STATUS:               ID:20180608033755     3
 ACTION:UP  21-06-22 12:45 OP:rosa STATUS:               ID:20180608033755     3
 ACTION:SPL 22-05-19 10:01 OP:hele STATUS:               ID:20180608033755     I
 STAT SP IPHASW D HRMM SECON CODA AMPLIT PERI AZIMU VELO AIN AR TRES W  DIS CAZ7
 DCP  HZ EP        338 54.86                              68   0.22010124.0  53 
 DCP  HE ES   2    339  8.69                              68   -.180 5124.0  53 
 BYE  HZ EP        338 56.13                              68   0.02010135.0  35 
 BYE  HE ES   2    339 11.78                              68   0.360 5135.0  35 
 BYE  HE  IAML     339 12.78        80.3 0.28                         135.0  35 
 TOW  HZ EP        338 56.94                              68   0.00010141.0  88 
 TOW  HE ES   2    339 12.38                              68   -.470 5141.0  88 
 LVN  HZ EP     C  338 59.07                              68   -.17010158.0  46 
 LVN  HE ES   2    339 16.16                              68   -.680 5158.0  46 
 LVN  HE  IAML     339 16.71       313.4 0.40                         158.0  46 
 AST  HZ EP     C  339  4.53                              68   -.11010199.0  81 
 AST  HE ES   2    339 26.55                              68   0.380 5199.0  81 
 OHG  HZ EP        339  9.96                              68   0.04010238.0  83 
 OHG  HE ES   2    339 35.65                              68   0.340 5238.0  83 
 FRE  HE ES   2    339 37.45                              68   0.240 5246.0  51 
 
 2018  6 9  639 24.4SL -63.001 -61.707 2.50  BRA  6 .30 1.5LBRA                1
 GAP=275       0.650       3.9    38.6 13.3  0.8095E+02 -0.4835E+03 -0.3239E+02E
 2018-06-09-0638-35S.NSN___024                                                 6
 2018-06-09-0639-04M.NSN___023                                                 6
 OLDACT:UP  21-04-06 22:45 OP:rosa STATUS:               ID:20180609063835     3
 OLDACT:UP  19-06-13 17:16 OP:rob  STATUS:               ID:20180609063835     3
 OLDACT:UP  19-06-10 18:38 OP:4    STATUS:               ID:20180609063835     3
 OLDACT:ARG 19-06-06 12:26 OP:rob  STATUS:               ID:20180609063835     3
 ACTION:UP  21-06-22 12:45 OP:rosa STATUS:               ID:20180609063835     3
 ACTION:SPL 22-05-19 10:01 OP:hele STATUS:               ID:20180609063835     I
 STAT SP IPHASW D HRMM SECON CODA AMPLIT PERI AZIMU VELO AIN AR TRES W  DIS CAZ7
 BYE  HZ EP        639 34.16                              62   0.0401048.50  40 
 BYE  HE ES        639 40.78                              62   -.4201048.50  40 
 BYE  HE  IAML     639 41.41        42.8 0.20                         48.50  40 
 DCP  HZ EP        639 35.04                              62   0.1901052.20  88 
 DCP  HE ES   2    639 42.85                              62   0.400 552.20  88 
 LVN  HZ EP        639 38.69                              43   0.0201077.10  61 
 LVN  HE ES   4    639 47.68                              43   -1.39 077.10  61 
 TOW  HZ EP        639 44.18                              43   -.21010117.0 125 
 TOW  HE ES   2    639 58.21                              43   -.760 5117.0 125 
 FRE  HZ EP        639 51.42                              39   0.09010167.0  59 
 FRE  HE ES        640 11.12                              39   0.15010167.0  59 
 JUBA HZ EP        639 53.09                              39   0.24010178.0  63 
 JUBA HE ES   4    640 14.96                              39    1.35 0178.0  63 
 
