 2018  3 2  510 15.9BL -62.531 -58.433 5.00  BRA  3 .20 1.0LBRA                1
 GAP=183       0.430       4.9    23.2  8.3  0.9885E+02  0.4097E+02 -0.4001E+01E
 2018-03-02-0509-24S.NSN___024                                                 6
 2018-03-02-0509-55M.NSN___023                                                 6
 OLDACT:UP  21-06-22 11:16 OP:rosa STATUS:               ID:20180302050924     3
 OLDACT:UP  21-04-06 17:12 OP:rosa STATUS:               ID:20180302050924     3
 OLDACT:UP  21-04-06 16:22 OP:rosa STATUS:               ID:20180302050924     3
 OLDACT:UP  19-06-13 15:20 OP:rob  STATUS:               ID:20180302050924     3
 OLDACT:UP  19-06-10 10:54 OP:rob  STATUS:               ID:20180302050924     3
 OLDACT:ARG 19-06-06 12:26 OP:rob  STATUS:               ID:20180302050924     3
 ACTION:UP  21-06-22 12:09 OP:rosa STATUS:               ID:20180302050924     3
 ACTION:SPL 22-05-19 10:01 OP:hele STATUS:               ID:20180302050924     I
 STAT SP IPHASW D HRMM SECON CODA AMPLIT PERI AZIMU VELO AIN AR TRES W  DIS CAZ7
 JUBA HZ EP   1    510 22.03                              47   0.130 734.90 340 
 JUBA HE ES   2    510 26.00                              47   -.270 534.90 340 
 FRE  HZ EP   1    510 23.69                              47   0.210 745.30 323 
 FRE  HE ES   2    510 28.81                              47   -.200 545.30 323 
 FRE  HE  IAML     510 29.06        13.9 0.36                         45.30 323 
 OHG  HZ EP   1    510 30.46                              47   -.130 792.20 163 
 
 2018  3 6  022 36.4FL -60.044 -58.595 0.10  BRA  5 .30 2.1LBRA                1
 GAP=337       0.590      53.2    41.5 39.5  0.1925E+04  0.1446E+04  0.2089E+04E
 2018-03-06-0022-12S.NSN___024                                                 6
 2018-03-06-0022-16M.NSN___020                                                 6
 OLDACT:UP  21-06-22 11:17 OP:rosa STATUS:               ID:20180306002212     3
 OLDACT:UP  21-04-06 17:14 OP:rosa STATUS:               ID:20180306002212     3
 OLDACT:UP  21-04-06 16:24 OP:rosa STATUS:               ID:20180306002212     3
 OLDACT:UP  19-06-13 15:20 OP:rob  STATUS:               ID:20180306002212     3
 OLDACT:UP  19-06-10 10:54 OP:rob  STATUS:               ID:20180306002212     3
 OLDACT:ARG 19-06-06 12:26 OP:rob  STATUS:               ID:20180306002212     3
 ACTION:UP  21-06-22 12:09 OP:rosa STATUS:               ID:20180306002212     3
 ACTION:SPL 22-05-19 10:01 OP:hele STATUS:               ID:20180306002212     I
 STAT SP IPHASW D HRMM SECON CODA AMPLIT PERI AZIMU VELO AIN AR TRES W  DIS CAZ7
 FRE  HZ EP        023 11.84                              37   -.16010242.0 185 
 FRE  HE ES   2    023 37.80                              37   -.200 5242.0 185 
 FRE  HE  IAML     023 42.40        11.0 0.16                         242.0 185 
 JUBA HZ EP        023 12.13                              37   -.23010244.0 181 
 JUBA HN ES   2    023 38.85                              37   0.240 5244.0 181 
 LVN  HZ EP        023 20.83                              35   0.13010307.0 197 
 LVN  HE ES   2    023 53.41                              35   0.370 5307.0 197 
 BYE  HZ EP        023 22.73                              35   0.21010321.0 204 
 BYE  HE ES   2    023 55.30                              35   -.880 5321.0 204 
 AST  HZ EP     D  023 28.26                              35   0.070 9366.0 181 
 AST  HE ES   2    024  6.44                              35   0.450 5366.0 181 
 
 2018  3 9 2036 46.1SL -63.386 -62.197 20.0  BRA  6 .30 1.9LBRA                1
 GAP=305       0.600       6.8    39.8 19.4  0.2104E+03 -0.7279E+03 -0.9865E+02E
 2018-03-09-2036-00S.NSN___024                                                 6
 2018-03-09-2036-26M.NSN___020                                                 6
 OLDACT:UP  21-06-22 11:27 OP:rosa STATUS:               ID:20180309203600     3
 OLDACT:UP  21-06-22 11:25 OP:rosa STATUS:               ID:20180309203600     3
 OLDACT:UP  21-04-06 17:08 OP:rosa STATUS:               ID:20180309203600     3
 OLDACT:UP  21-04-06 17:08 OP:rosa STATUS:               ID:20180309203600     3
 OLDACT:UP  21-04-06 16:33 OP:rosa STATUS:               ID:20180309203600     3
 OLDACT:UP  21-04-06 16:30 OP:rosa STATUS:               ID:20180309203600     3
 OLDACT:UP  19-06-13 15:19 OP:rob  STATUS:               ID:20180309203600     3
 OLDACT:UP  19-06-10 11:06 OP:rob  STATUS:               ID:20180309203600     3
 OLDACT:ARG 19-06-06 12:26 OP:rob  STATUS:               ID:20180309203600     3
 ACTION:UP  21-06-22 12:12 OP:rosa STATUS:               ID:20180309203600     3
 ACTION:SPL 22-05-19 10:01 OP:hele STATUS:               ID:20180309203600     I
 STAT SP IPHASW D HRMM SECON CODA AMPLIT PERI AZIMU VELO AIN AR TRES W  DIS CAZ7
 DCP  HZ EP       2037  0.56                              95   -.2101089.00  60 
 DCP  HE ES   2   2037 11.54                              95   0.020 589.00  60 
 BYE  HZ EP       2037  2.36                              68   0.3901097.60  35 
 BYE  HE ES   2   2037 13.83                              68   0.230 597.60  35 
 LVN  HZ EP       2037  5.03                              68   -.21010122.0  49 
 LVN  HE ES   2   2037 19.08                              68   -.160 5122.0  49 
 LVN  HE  IAML    2037 19.59        29.3 0.40                         122.0  49 
 AST  HZ EP   1 C 2037 12.18                              68   -.120 7175.0  89 
 AST  HN ES   2   2037 31.16                              68   -.290 5175.0  89 
 OHG  HZ EP   1   2037 17.96                              68   0.290 7215.0  90 
 OHG  HE ES   2   2037 41.46                              68   0.710 5215.0  90 
 JUBA HZ EP       2037 18.25                              68   -.19010221.0  56 
 
 2018  312  158 25.1SL -62.697 -59.130 9.70  BRA  6 .20 1.1LBRA                1
 GAP=113       0.360       1.3     3.6  4.6 -0.6606E+00  0.4974E+01 -0.7565E+00E
 2018-03-12-0157-37S.NSN___024                                                 6
 2018-03-12-0158-05M.NSN___020                                                 6
 OLDACT:UP  21-06-22 11:27 OP:rosa STATUS:               ID:20180312015737     3
 OLDACT:UP  21-04-06 17:16 OP:rosa STATUS:               ID:20180312015737     3
 OLDACT:UP  21-04-06 16:40 OP:rosa STATUS:               ID:20180312015737     3
 OLDACT:UP  19-06-13 15:27 OP:rob  STATUS:               ID:20180312015737     3
 OLDACT:UP  19-06-13 15:22 OP:rob  STATUS:               ID:20180312015737     3
 OLDACT:UP  19-06-10 11:06 OP:rob  STATUS:               ID:20180312015737     3
 OLDACT:ARG 19-06-06 12:26 OP:rob  STATUS:               ID:20180312015737     3
 ACTION:UP  21-06-22 11:27 OP:rosa STATUS:               ID:20180312015737     3
 ACTION:SPL 22-05-19 10:01 OP:hele STATUS:               ID:20180312015737     I
 STAT SP IPHASW D HRMM SECON CODA AMPLIT PERI AZIMU VELO AIN AR TRES W  DIS CAZ7
 FRE  HZ EP   2    158 35.18                              50   -.120 555.30   9 
 FRE  HN ES   2    158 42.72                              50   -.030 555.30   9 
 JUBA HZ EP        158 35.52                              50   0.0301056.60  25 
 JUBA HN ES   2    158 43.16                              50   0.080 556.60  25 
 LVN  HZ EP   2    158 36.66                              50   0.030 564.50 273 
 LVN  HE ES   2    158 44.66                              50   -.400 564.50 273 
 LVN  HE  IAML     158 45.02        11.3 0.24                         64.50 273 
 AST  HZ EP   1    158 38.09                              50   0.170 773.50 163 
 AST  HE ES   2    158 47.21                              50   -.080 573.50 163 
 OHG  HZ EP   2    158 40.53                              50   -.280 593.60 139 
 BYE  HZ EP   2    158 41.76                              50   -.110 5101.0 271 
 BYE  HN ES   2    158 54.51                              50   0.390 5101.0 271 
 
 2018  319 1354 17.3SL -62.647 -61.360 22.1  BRA  8 .20 3.0LBRA                1
 GAP=286       0.510       2.5     9.8  2.5 -0.9387E+01 -0.9242E+01  0.5517E+00E
 100.0      88.0     158.0  6.0  8.0 19.0  0.0  0.1           TES FPFIT    F
 2018-03-19-1353-26S.NSN___027                                                 6
 2018-03-19-1353-57M.NSN___023                                                 6
 OLDACT:UP  21-04-06 17:02 OP:rosa STATUS:               ID:20180319135326     3
 OLDACT:UP  21-04-06 17:02 OP:rosa STATUS:               ID:20180319135326     3
 OLDACT:UP  19-06-13 15:31 OP:rob  STATUS:               ID:20180319135326     3
 OLDACT:UP  19-06-10 10:52 OP:rob  STATUS:               ID:20180319135326     3
 OLDACT:ARG 19-06-06 12:26 OP:rob  STATUS:               ID:20180319135326     3
 ACTION:UP  21-06-22 11:28 OP:rosa STATUS:               ID:20180319135326     3
 ACTION:SPL 22-05-19 10:01 OP:hele STATUS:               ID:20180319135326     I
 STAT SP IPHASW D HRMM SECON CODA AMPLIT PERI AZIMU VELO AIN AR TRES W  DIS CAZ7
 BYE  HZ EP     D 1354 22.16                             142   0.2601013.50  99 
 BYE  HE ES   2   1354 25.16                             142   -.110 513.50  99 
 LVN  HZ EP     C 1354 26.10                             104   -.3801049.90  92 
 LVN  HE ES   4   1354 32.07                             104   -1.12 049.90  92 
 DCP  HN ES   2   1354 33.59                             104   0.200 550.60 137 
 TOW  HZ EP     D 1354 37.77                              68   0.08010132.0 144 
 TOW  HE ES   2   1354 52.84                              68   0.260 5132.0 144 
 FRE  HE ES       1354 53.04                              68   0.16010133.0  69 
 JUBA HZ EP     C 1354 39.65                              68   0.02010147.0  73 
 JUBA HE ES   2   1354 56.02                              68   0.080 5147.0  73 
 JUBA HZ  IAML    1354 58.47       233.3 0.26                         147.0  73 
 AST  HZ EP       1354 40.42                              68   -.27010155.0 121 
 AST  HE ES   2   1354 57.35                              68   -.430 5155.0 121 
 OHG  HZ EP       1354 45.68                              68   0.13010191.0 115 
 OHG  HE ES   2   1355  6.42                              68   0.240 5191.0 115 
 FRE  HZ EP       1354 37.54                              68          133.0  69 
 
 2018  4 3 2037 31.2SL -62.731 -59.346 9.20  BRA  7 .20 1.4LBRA                1
 GAP=101       0.470       1.2     3.1  4.0 -0.7012E-01  0.1267E+01  0.1099E+01E
 61.0      51.0    -122.0  5.0 10.0  3.0  0.1  0.2           TES FPFIT    F
 2018-04-03-2036-41S.NSN___027                                                 6
 2018-04-03-2037-11M.NSN___023                                                 6
 OLDACT:UP  21-04-06 17:43 OP:rosa STATUS:               ID:20180403203641     3
 OLDACT:UP  21-04-06 17:42 OP:rosa STATUS:               ID:20180403203641     3
 OLDACT:UP  19-06-13 15:35 OP:rob  STATUS:               ID:20180403203641     3
 OLDACT:UP  19-06-10 11:12 OP:rob  STATUS:               ID:20180403203641     3
 OLDACT:ARG 19-06-06 12:26 OP:rob  STATUS:               ID:20180403203641     3
 ACTION:UP  21-06-22 11:40 OP:rosa STATUS:               ID:20180403203641     3
 ACTION:SPL 22-05-19 10:01 OP:hele STATUS:               ID:20180403203641     I
 STAT SP IPHASW D HRMM SECON CODA AMPLIT PERI AZIMU VELO AIN AR TRES W  DIS CAZ7
 LVN  HZ IP     C 2037 41.13                              50   -.1001053.80 278 
 LVN  HN ES   2   2037 48.21                              50   -.370 553.80 278 
 FRE  HZ IP     C 2037 42.48                              50   0.1201061.70  19 
 FRE  HE ES   2   2037 50.41                              50   -.130 561.70  19 
 JUBA HE ES   2   2037 51.24                              50   -.210 565.40  33 
 AST  HZ EP     C 2037 43.89                              50   -.2301074.00 154 
 AST  HE ES   2   2037 53.59                              50   0.000 574.00 154 
 BYE  HZ EP   1   2037 46.53                              50   0.100 790.00 274 
 BYE  HE ES   2 D 2037 57.59                              50   0.010 590.00 274 
 TOW  HZ IP     C 2037 47.50                              50   -.1401098.40 193 
 OHG  HZ EP       2037 47.78                              50   0.1201098.60 133 
 OHG  HE ES   2   2037 59.20                              50   -.510 598.60 133 
 JUBA HZ EP     C 2037 43.06                              50   0.1701065.40  33 
 TOW  HE ES   2   2037 59.97                              50   0.3001098.40 193 
 
 2018  4 7 1056 45.2SL -62.620 -55.462141.0  BRA  4 .20 1.2LBRA                1
 GAP=320       0.420       7.9    31.1 14.1 -0.6234E+02 -0.3451E+03  0.2646E+02E
 2018-04-07-1056-17S.NSN___027                                                 6
 2018-04-07-1056-25M.NSN___023                                                 6
 OLDACT:UP  21-06-22 12:14 OP:rosa STATUS:               ID:20180407105617     3
 OLDACT:UP  21-06-22 11:42 OP:rosa STATUS:               ID:20180407105617     3
 OLDACT:UP  21-04-06 17:51 OP:rosa STATUS:               ID:20180407105617     3
 OLDACT:UP  19-06-13 15:39 OP:rob  STATUS:               ID:20180407105617     3
 OLDACT:UP  19-06-13 15:36 OP:rob  STATUS:               ID:20180407105617     3
 OLDACT:UP  19-06-10 11:27 OP:rob  STATUS:               ID:20180407105617     3
 OLDACT:ARG 19-06-06 12:26 OP:rob  STATUS:               ID:20180407105617     3
 ACTION:UP  21-06-22 12:14 OP:rosa STATUS:               ID:20180407105617     3
 ACTION:SPL 22-05-19 10:01 OP:hele STATUS:               ID:20180407105617     I
 STAT SP IPHASW D HRMM SECON CODA AMPLIT PERI AZIMU VELO AIN AR TRES W  DIS CAZ7
 JUBA HZ EP   1   1057 15.45                             123   0.170 7171.0 283 
 JUBA HE ES   2 D 1057 37.55                             123   0.280 5171.0 283 
 AST  HE ES   2 D 1057 39.27                             121   -.060 5182.0 243 
 FRE  HZ EP   1   1057 16.67                             121   -.250 7187.0 283 
 FRE  HN ES   2   1057 39.86                             121   -.240 5187.0 283 
 FRE  HN  IAML    1057 40.21         1.7 0.44                         187.0 283 
 BYE  HZ EP       1057 28.44                             108   0.05010289.0 266 
 
 2018  410  453 33.8FL -62.004 -56.431 50.0  BRA  7 .30 2.2LBRA                1
 GAP=307       0.780       6.7    12.8 34.5  0.2533E+02 -0.1344E+03  0.2209E+02E
 2018-04-10-0452-51S.NSN___027                                                 6
 2018-04-10-0453-14M.NSN___023                                                 6
 OLDACT:UP  21-06-22 12:15 OP:rosa STATUS:               ID:20180410045251     3
 OLDACT:UP  21-04-06 18:09 OP:rosa STATUS:               ID:20180410045251     3
 OLDACT:UP  19-06-13 15:43 OP:rob  STATUS:               ID:20180410045251     3
 OLDACT:UP  19-06-10 11:52 OP:rob  STATUS:               ID:20180410045251     3
 OLDACT:ARG 19-06-06 12:26 OP:rob  STATUS:               ID:20180410045251     3
 ACTION:UP  21-06-22 12:15 OP:rosa STATUS:               ID:20180410045251     3
 ACTION:SPL 22-05-19 10:01 OP:hele STATUS:               ID:20180410045251     I
 STAT SP IPHASW D HRMM SECON CODA AMPLIT PERI AZIMU VELO AIN AR TRES W  DIS CAZ7
 JUBA HZ EP        453 51.53                             103   -.28010119.0 256 
 JUBA HE ES   2    454  5.06                             103   0.120 5119.0 256 
 FRE  HZ EP        453 53.87                             101   0.23010134.0 259 
 FRE  HE ES   2    454  8.26                             101   0.170 5134.0 259 
 OHG  HZ EP        453 57.35                              97   -.19010165.0 206 
 OHG  HE ES   2    454 15.36                              97   0.510 5165.0 206 
 OHG  HE  IAML     454 17.27        29.6 0.28                         165.0 206 
 AST  HZ EP        454  0.11                              96   -.32010188.0 217 
 AST  HE ES   2    454 19.39                              96   -.460 5188.0 217 
 LVN  HZ EP        454  4.50                              94   0.27010218.0 249 
 LVN  HE ES   2    454 25.79                              94   -.630 5218.0 249 
 TOW  HZ EP     C  454  8.43                              94   0.61010246.0 223 
 BYE  HZ EP        454  8.38                              94   -.31010253.0 251 
 BYE  HE ES        454 34.19                              94   0.06010253.0 251 
 
 2018  424  727  8.2FL -61.293 -56.824 35.0  BRA  4 .10 1.0LBRA                1
 GAP=348       0.340      22.1    39.1  9.7 -0.8188E+03  0.2984E+03 -0.1720E+03E
 2018-04-24-0726-17S.NSN___024                                                 6
 2018-04-24-0726-48M.NSN___023                                                 6
 OLDACT:UP  21-06-22 12:18 OP:rosa STATUS:               ID:20180424072617     3
 OLDACT:UP  21-04-06 18:32 OP:rosa STATUS:               ID:20180424072617     3
 OLDACT:UP  19-06-13 15:52 OP:rob  STATUS:               ID:20180424072617     3
 OLDACT:UP  19-06-10 12:52 OP:rob  STATUS:               ID:20180424072617     3
 OLDACT:ARG 19-06-06 12:26 OP:rob  STATUS:               ID:20180424072617     3
 ACTION:UP  21-06-22 12:18 OP:rosa STATUS:               ID:20180424072617     3
 ACTION:SPL 22-05-19 10:01 OP:hele STATUS:               ID:20180424072617     I
 STAT SP IPHASW D HRMM SECON CODA AMPLIT PERI AZIMU VELO AIN AR TRES W  DIS CAZ7
 JUBA HZ EP        727 29.09                              97   0.04010143.0 222 
 JUBA HE ES   2    727 44.35                              97   0.050 5143.0 222 
 FRE  HZ EP        727 30.27                              96   0.05010152.0 227 
 FRE  HE ES   2    727 46.09                              96   -.220 5152.0 227 
 FRE  HE  IAML     727 46.59         2.4 0.24                         152.0 227 
 LVN  HZ EP        727 41.62                              73   -.09010241.0 229 
 BYE  HE ES   2    728 12.99                              73   0.170 5271.0 234 
 
 2018  427  552 43.6 L -61.374 -58.737 0.10  BRA  4 .20 1.7LBRA                1
 GAP=318       0.490      18.3    44.5 20.4  0.7657E+03  0.8534E+03  0.3553E+03E
 2018-04-27-0551-59S.NSN___027                                                 6
 2018-04-27-0552-24M.NSN___023                                                 6
 OLDACT:UP  21-04-06 18:35 OP:rosa STATUS:               ID:20180427055159     3
 OLDACT:UP  19-06-13 15:53 OP:rob  STATUS:               ID:20180427055159     3
 OLDACT:UP  19-06-10 12:58 OP:rob  STATUS:               ID:20180427055159     3
 OLDACT:ARG 19-06-06 12:26 OP:rob  STATUS:               ID:20180427055159     3
 ACTION:UP  21-06-22 12:19 OP:rosa STATUS:               ID:20180427055159     3
 ACTION:SPL 22-05-19 10:01 OP:hele STATUS:               ID:20180427055159     I
 STAT SP IPHASW D HRMM SECON CODA AMPLIT PERI AZIMU VELO AIN AR TRES W  DIS CAZ7
 FRE  HZ EP     C  552 58.86                              47   0.0201093.60 187 
 FRE  HE ES   2    553  9.69                              47   -.310 593.60 187 
 FRE  HE  IAML     553 10.13        13.0 0.16                         93.60 187 
 JUBA HN ES   2    553 11.06                              47   0.340 596.30 178 
 LVN  HZ EP        553  8.36                              37   -.23010168.0 210 
 LVN  HN ES   2    553 26.90                              37   0.030 5168.0 210 
 BYE  HZ EP   1    553 11.70                              37   0.370 7190.0 220 
 JUBA HZ EP     C  552 59.24                              47   -.0201096.30 178 
 
