 2018  728 1511 55.6SL -61.098 -54.860258.4  BRA  4 .30 1.9LBRA                1
 GAP=333       0.590      25.4   133.9 68.4  0.2764E+04 -0.8944E+04 -0.1473E+04E
 2018-07-28-1511-19S.NSN___024                                                 6
 2018-07-28-1511-36M.NSN___020                                                 6
 OLDACT:UP  21-06-22 17:22 OP:rosa STATUS:               ID:20180728151119     3
 OLDACT:UP  21-06-22 17:22 OP:rosa STATUS:               ID:20180728151119     3
 OLDACT:UP  21-06-22 17:18 OP:rosa STATUS:               ID:20180728151119     3
 OLDACT:UP  21-04-07 19:27 OP:rosa STATUS:               ID:20180728151119     3
 OLDACT:UP  21-04-07 19:27 OP:rosa STATUS:               ID:20180728151119     3
 OLDACT:UP  21-04-07 19:27 OP:rosa STATUS:               ID:20180728151119     3
 OLDACT:UP  21-04-07 19:26 OP:rosa STATUS:               ID:20180728151119     3
 OLDACT:UP  21-04-07 18:23 OP:rosa STATUS:               ID:20180728151119     3
 OLDACT:UP  21-04-07 18:21 OP:rosa STATUS:               ID:20180728151119     3
 OLDACT:UP  19-06-14 10:49 OP:rob  STATUS:               ID:20180728151119     3
 OLDACT:UP  19-06-14 10:47 OP:rob  STATUS:               ID:20180728151119     3
 OLDACT:ARG 19-06-06 12:26 OP:rob  STATUS:               ID:20180728151119     3
 ACTION:UP  21-06-22 17:23 OP:rosa STATUS:               ID:20180728151119     3
 ACTION:SPL 22-05-19 10:01 OP:hele STATUS:               ID:20180728151119     I
 STAT SP IPHASW D HRMM SECON CODA AMPLIT PERI AZIMU VELO AIN AR TRES W  DIS CAZ7
 JUBA HZ EP   1   1512 40.73                             133   -.090 7238.0 236 
 JUBA HE ES   2   1513 14.53                             133   0.670 5238.0 236 
 FRE  HZ EP   1   1512 41.53                             132   -.320 7250.0 239 
 FRE  HE ES   2   1513 15.50                             132   -.140 5250.0 239 
 FRE  HE  IAML    1513 21.30         2.8 0.32                         250.0 239 
 OHG  HZ EP   1   1512 46.10                             127   0.240 7294.0 211 
 OHG  HN ES   2   1513 22.04                             127   -.540 5294.0 211 
 AST  HZ EP   1 C 1512 48.44                             124   0.180 7319.0 217 
 
 2018  729 1328 18.4SL -62.823 -61.935 59.8  BRA  3 .00 1.7LBRA 0.9CBRA        1
 GAP=299       0.290       3.7     8.3  4.8  0.8615E+01  0.1835E+02  0.1159E+02E
 2018-07-29-1327-29S.NSN___024                                                 6
 2018-07-29-1327-58M.NSN___020                                                 6
 OLDACT:UP  21-06-22 17:23 OP:rosa STATUS:               ID:20180729132729     3
 OLDACT:UP  21-04-07 18:27 OP:rosa STATUS:               ID:20180729132729     3
 OLDACT:UP  21-04-07 18:26 OP:rosa STATUS:               ID:20180729132729     3
 OLDACT:UP  21-04-07 18:25 OP:rosa STATUS:               ID:20180729132729     3
 OLDACT:UP  19-06-14 10:50 OP:rob  STATUS:               ID:20180729132729     3
 OLDACT:UP  19-06-11 16:00 OP:rob  STATUS:               ID:20180729132729     3
 OLDACT:ARG 19-06-06 12:26 OP:rob  STATUS:               ID:20180729132729     3
 ACTION:UP  21-06-22 17:23 OP:rosa STATUS:               ID:20180729132729     3
 ACTION:SPL 22-05-19 10:01 OP:hele STATUS:               ID:20180729132729     I
 STAT SP IPHASW D HRMM SECON CODA AMPLIT PERI AZIMU VELO AIN AR TRES W  DIS CAZ7
 BYE  HZ IP     C 1328 29.67   18                        139   0.0001046.20  68 
 BYE  HE ES       1328 37.92                             139   -.0001046.20  68 
 BYE  HE  IAML    1328 38.36        33.7 0.12                         46.20  68 
 LVN  HZ EP       1328 33.26                             122   -.0001081.10  78 
 LVN  HE ES       1328 44.14                             122   0.0001081.10  78 
 TOW  HZ EP   2   1328 40.18                             108   -.000 5138.0 129 
 TOW  HE ES   2   1328 56.12                             108   0.000 5138.0 129 
 
 2018  8 7 1134 45.4BL -62.755 -59.350 4.40  BRA  7 .30-0.0LBRA                1
 GAP= 99       0.620       1.6     3.8  5.2  0.3855E+00  0.1915E+00  0.1825E+00E
 2018-08-07-1133-56S.NSN___021                                                 6
 2018-08-07-1134-25M.NSN___020                                                 6
 OLDACT:UP  19-06-14 11:39 OP:rob  STATUS:               ID:20180807113356     3
 OLDACT:UP  19-06-14 11:39 OP:rob  STATUS:               ID:20180807113356     3
 OLDACT:UP  19-06-14 11:38 OP:rob  STATUS:               ID:20180807113356     3
 OLDACT:ARG 19-06-06 12:26 OP:rob  STATUS:               ID:20180807113356     3
 ACTION:UP  21-06-24 09:14 OP:rosa STATUS:               ID:20180807113356     3
 ACTION:SPL 22-05-19 10:01 OP:hele STATUS:               ID:20180807113356     I
 STAT SP IPHASW D HRMM SECON CODA AMPLIT PERI AZIMU VELO AIN AR TRES W  DIS CAZ7
 LVN  HZ EP       1134 54.29                              47   -.1201054.10 281 
 LVN  HN ES   2   1135  0.67                              47   -.300 554.10 281 
 FRE  HZ EP       1134 55.97                              47   0.0101064.30  18 
 FRE  HE ES   2   1135  3.42                              47   -.220 564.30  18 
 JUBA HZ EP       1134 56.37                              47   -.1101067.70  32 
 JUBA HE ES   2   1135  4.97                              47   0.430 567.70  32 
 AST  HZ EP       1134 57.20                              47   0.1201071.70 153 
 AST  HE ES   2   1135  4.59                              47   -.990 571.70 153 
 BYE  HZ EP       1134 59.68                              47   -.1801090.10 276 
 BYE  HN ES   2   1135 11.38                              47   0.990 590.10 276 
 TOW  HZ EP       1135  0.82                              47   0.0901095.80 193 
 TOW  HE ES   2   1135 11.98                              47   0.080 595.80 193 
 OHG  HZ EP       1135  1.09                              47   0.1901096.90 131 
 OHG  HE ES   2   1135 12.18                              47   -.010 596.90 131 
 OHG  HE  IAML    1135 14.13         0.5 0.32                         96.90 131 
 
 2018  8 8  922 23.9SL -64.469 -62.562 95.2  BRA  5 .20 0.3LBRA                1
 GAP=334       0.440      21.3    37.0 11.3 -0.6825E+03  0.3500E+03 -0.2224E+03E
 2018-08-08-0921-55S.NSN___024                                                 6
 2018-08-08-0922-04M.NSN___020                                                 6
 OLDACT:UP  21-06-24 09:21 OP:rosa STATUS:               ID:20180808092155     3
 OLDACT:UP  21-06-24 09:18 OP:rosa STATUS:               ID:20180808092155     3
 OLDACT:UP  21-04-07 19:40 OP:rosa STATUS:               ID:20180808092155     3
 OLDACT:UP  21-04-07 19:39 OP:rosa STATUS:               ID:20180808092155     3
 OLDACT:UP  19-06-14 11:55 OP:rob  STATUS:               ID:20180808092155     3
 OLDACT:ARG 19-06-06 12:26 OP:rob  STATUS:               ID:20180808092155     3
 ACTION:UP  21-06-24 09:22 OP:rosa STATUS:               ID:20180808092155     3
 ACTION:SPL 22-05-19 10:01 OP:hele STATUS:               ID:20180808092155     I
 STAT SP IPHASW D HRMM SECON CODA AMPLIT PERI AZIMU VELO AIN AR TRES W  DIS CAZ7
 TOW  HZ EP   1    922 50.85                             117   -.270 7167.0  56 
 TOW  HN ES   2    923 11.02                             117   0.010 5167.0  56 
 TOW  HZ  IAML     923 13.80         0.3 0.36                         167.0  56 
 AST  HZ EP   1    922 58.89                             110   0.290 7228.0  58 
 AST  HE ES   2    923 24.17                             110   0.220 5228.0  58 
 OHG  HN ES   2    923 31.17                             107   -.230 5262.0  63 
 FRE  HN ES   2    923 42.10                              66   0.130 5310.0  37 
 JUBA HN ES   2    923 43.09                              66   -.180 5316.0  40 
 
 2018  8 8 1753 19.0AL -63.958 -59.885 5.00  BRA  5 .30-0.3LBRA                1
 GAP=281       0.530       7.5     9.5  6.3  0.2678E+02 -0.9399E+01 -0.2140E+02E
 2018-08-08-1752-28S.NSN___024                                                 6
 2018-08-08-1752-59M.NSN___020                                                 6
 OLDACT:UP  21-04-07 20:31 OP:rosa STATUS:               ID:20180808175228     3
 OLDACT:UP  21-04-07 20:30 OP:rosa STATUS:               ID:20180808175228     3
 OLDACT:UP  21-04-07 20:30 OP:rosa STATUS:               ID:20180808175228     3
 OLDACT:UP  21-04-07 20:30 OP:rosa STATUS:               ID:20180808175228     3
 OLDACT:UP  21-04-07 20:28 OP:rosa STATUS:               ID:20180808175228     3
 OLDACT:UP  19-06-14 12:00 OP:rob  STATUS:               ID:20180808175228     3
 OLDACT:UP  19-06-11 17:58 OP:rob  STATUS:               ID:20180808175228     3
 OLDACT:ARG 19-06-06 12:26 OP:rob  STATUS:               ID:20180808175228     3
 ACTION:UP  21-06-24 09:23 OP:rosa STATUS:               ID:20180808175228     3
 ACTION:SPL 22-05-19 10:01 OP:hele STATUS:               ID:20180808175228     I
 STAT SP IPHASW D HRMM SECON CODA AMPLIT PERI AZIMU VELO AIN AR TRES W  DIS CAZ7
 TOW  HZ EP       1753 26.38                              61   -.0601041.10   7 
 TOW  HE ES   2   1753 32.21                              61   0.330 541.10   7 
 AST  HZ EP   2   1753 33.84                              50   -.200 591.50  40 
 AST  HE ES   2   1753 44.24                              50   -.770 591.50  40 
 AST  HE  IAML    1753 45.97         0.3 0.32                         91.50  40 
 OHG  HZ EP   2   1753 38.59                              50   0.400 5121.0  55 
 OHG  HE ES   2   1753 52.66                              50   0.460 5121.0  55 
 LVN  HZ EP   2   1753 41.47                              43   -.120 5147.0 350 
 LVN  HE ES   2   1753 58.21                              43   0.130 5147.0 350 
 BYE  HN ES   2   1754  0.17                              43   0.030 5156.0 337 
 
 2018  8 9  536 48.6SL -63.151 -61.061 13.1  BRA  5 .20 1.5LBRA 2.2CBRA        1
 GAP=230       0.540       2.4     9.8  5.4  0.1877E+02 -0.3108E+02 -0.6976E+01E
 2018-08-09-0535-59S.NSN___024                                                 6
 2018-08-09-0536-29M.NSN___020                                                 6
 OLDACT:UP  21-06-24 09:32 OP:rosa STATUS:               ID:20180809053559     3
 OLDACT:UP  21-04-07 20:45 OP:rosa STATUS:               ID:20180809053559     3
 OLDACT:UP  21-04-07 20:45 OP:rosa STATUS:               ID:20180809053559     3
 OLDACT:UP  21-04-07 20:45 OP:rosa STATUS:               ID:20180809053559     3
 OLDACT:UP  21-04-07 20:44 OP:rosa STATUS:               ID:20180809053559     3
 OLDACT:UP  19-06-14 12:15 OP:rob  STATUS:               ID:20180809053559     3
 OLDACT:UP  19-06-11 18:20 OP:rob  STATUS:               ID:20180809053559     3
 OLDACT:ARG 19-06-06 12:26 OP:rob  STATUS:               ID:20180809053559     3
 ACTION:UP  21-06-24 09:32 OP:rosa STATUS:               ID:20180809053559     3
 ACTION:SPL 22-05-19 10:01 OP:hele STATUS:               ID:20180809053559     I
 STAT SP IPHASW D HRMM SECON CODA AMPLIT PERI AZIMU VELO AIN AR TRES W  DIS CAZ7
 BYE  HZ EP     C  536 57.93                              50   0.0101054.00 358 
 BYE  HE ES        537  4.81                              50   0.0601054.00 358 
 LVN  HZ EP        536 59.28                              50   -.1201064.20  32 
 LVN  HE ES        537  7.16                              50   -.1501064.20  32 
 LVN  HE  IAML     537  7.61        27.6 0.22                         64.20  32 
 TOW  HZ EP        537  1.62                              50   -.1401080.70 128 
 TOW  HE ES        537 11.20                              50   -.2001080.70 128 
 AST  HZ EP   1    537  7.35   49                         50   -.080 7120.0 100 
 AST  HE ES   2    537 21.37                              50   0.150 5120.0 100 
 OHG  HZ EP        537 13.35                              45   0.44010160.0  98 
 OHG  HE ES   2    537 31.10                              45   0.410 5160.0  98 
 
 2018  8 9  539 18.5SL -63.156 -61.083 13.1  BRA  5 .20 0.1LBRA 1.1CBRA        1
 GAP=232       0.460       2.5    10.4  5.8  0.1967E+02 -0.4312E+02 -0.6621E+01E
 2018-08-09-0539-14S.NSN___024                                                 6
 2018-08-09-0538-59M.NSN___020                                                 6
 OLDACT:UP  21-04-07 20:57 OP:rosa STATUS:               ID:20180809053914     3
 OLDACT:UP  21-04-07 20:57 OP:rosa STATUS:               ID:20180809053914     3
 OLDACT:UP  21-04-07 20:56 OP:rosa STATUS:               ID:20180809053914     3
 OLDACT:UP  21-04-07 20:56 OP:rosa STATUS:               ID:20180809053914     3
 OLDACT:UP  21-04-07 20:55 OP:rosa STATUS:               ID:20180809053914     3
 OLDACT:UP  19-06-14 12:17 OP:rob  STATUS:               ID:20180809053914     3
 OLDACT:UP  19-06-11 18:29 OP:rob  STATUS:               ID:20180809053914     3
 OLDACT:ARG 19-06-06 12:26 OP:rob  STATUS:               ID:20180809053914     3
 ACTION:UP  21-06-24 09:34 OP:rosa STATUS:               ID:20180809053914     3
 ACTION:SPL 22-05-19 10:01 OP:hele STATUS:               ID:20180809053914     I
 STAT SP IPHASW D HRMM SECON CODA AMPLIT PERI AZIMU VELO AIN AR TRES W  DIS CAZ7
 BYE  HZ EP   1    539 28.03   22                         50   0.110 754.60 359 
 BYE  HE ES   2    539 34.92                              50   0.100 554.60 359 
 LVN  HZ EP   1    539 29.27                              50   -.200 765.40  33 
 LVN  HE ES   2    539 37.21                              50   -.310 565.40  33 
 TOW  HZ EP        539 31.65   21                         50   -.0901081.20 127 
 TOW  HE ES        539 41.21                              50   -.2301081.20 127 
 AST  HZ EP        539 37.52                              50   0.03010121.0 100 
 AST  HE ES        539 51.50                              50   0.12010121.0 100 
 OHG  HZ EP   1    539 43.33                              45   0.370 7161.0  98 
 OHG  HE ES   2    540  1.10                              45   0.250 5161.0  98 
 OHG  HE  IAML     540  3.17         0.3 0.08                         161.0  98 
 
 2018  8 9  540  3.0SL -63.148 -61.043 13.0  BRA  7 .20 1.1LBRA 1.7CBRA        1
 GAP=228       0.410       2.4     8.1  4.8  0.1582E+02 -0.2535E+02 -0.7832E+01E
 2018-08-09-0539-14S.NSN___024                                                 6
 2018-08-09-0539-43M.NSN___020                                                 6
 OLDACT:UP  21-06-24 09:34 OP:rosa STATUS:               ID:20180809053915d    3
 OLDACT:UP  21-04-07 21:04 OP:rosa STATUS:               ID:20180809053915d    3
 OLDACT:UP  21-04-07 21:03 OP:rosa STATUS:               ID:20180809053915d    3
 OLDACT:UP  21-04-07 21:03 OP:rosa STATUS:               ID:20180809053915d    3
 OLDACT:UP  21-04-07 21:03 OP:rosa STATUS:               ID:20180809053915d    3
 OLDACT:UP  21-04-07 21:03 OP:rosa STATUS:               ID:20180809053915d    3
 OLDACT:UP  21-04-07 21:02 OP:rosa STATUS:               ID:20180809053915d    3
 OLDACT:UP  21-04-07 21:02 OP:rosa STATUS:               ID:20180809053915d    3
 OLDACT:UP  21-04-07 21:02 OP:rosa STATUS:               ID:20180809053915d    3
 OLDACT:UP  21-04-07 21:01 OP:rosa STATUS:               ID:20180809053915d    3
 OLDACT:UP  21-04-07 21:01 OP:rosa STATUS:               ID:20180809053915d    3
 OLDACT:UP  21-04-07 21:00 OP:rosa STATUS:               ID:20180809053915d    3
 OLDACT:UP  21-04-07 21:00 OP:rosa STATUS:               ID:20180809053915d    3
 OLDACT:UP  21-04-07 20:59 OP:rosa STATUS:               ID:20180809053915d    3
 OLDACT:UP  21-04-07 20:58 OP:rosa STATUS:               ID:20180809053915d    3
 OLDACT:DUP 21-04-07 20:55 OP:rosa STATUS:               ID:20180809053915d    3
 OLDACT:UP  19-06-14 12:17 OP:rob  STATUS:               ID:20180809053914     3
 OLDACT:UP  19-06-11 18:29 OP:rob  STATUS:               ID:20180809053914     3
 OLDACT:ARG 19-06-06 12:26 OP:rob  STATUS:               ID:20180809053914     3
 ACTION:UP  21-06-24 09:36 OP:rosa STATUS:               ID:20180809053915d    3
 ACTION:SPL 22-05-19 10:01 OP:hele STATUS:               ID:20180809053915d    I
 STAT SP IPHASW D HRMM SECON CODA AMPLIT PERI AZIMU VELO AIN AR TRES W  DIS CAZ7
 BYE  HZ EP        540 12.59                              50   -.0001053.70 357 
 BYE  HE ES        540 19.54                              50   -.0501053.70 357 
 BYE  HE  IAML2    540 19.86        22.8 0.20                         53.70 357 
 LVN  HZ EP        540 14.08                              50   0.0801063.50  32 
 LVN  HE ES   2    540 21.67                              50   -.360 563.50  32 
 TOW  HZ EP        540 16.32   26                         50   -.0801080.20 129 
 TOW  HE ES   2    540 25.83                              50   -.340 580.20 129 
 TOW  HE  IAML     540 26.38         5.0 0.16                         80.20 129 
 AST  HZ EP   1    540 21.79   45                         50   -.240 7119.0 101 
 AST  HE ES   2    540 35.90                              50   -.020 5119.0 101 
 FRE  HN ES   2    540 43.34                              45   0.140 5150.0  46 
 JUBA HZ EP   2    540 27.28                              45   -.160 5159.0  51 
 JUBA HN ES   2    540 45.37                              45   0.090 5159.0  51 
 OHG  HZ EP        540 27.87                              45   0.33010159.0  98 
 OHG  HN ES   2    540 45.50                              45   0.060 5159.0  98 
 
 2018  8 9  550 37.1BL -63.150 -61.009 2.30  BRA  5 .10 0.5LBRA                1
 GAP=226       0.320       1.9     7.3  3.7  0.1120E+02 -0.1700E+02 -0.3567E+01E
 2018-08-09-0549-48S.NSN___024                                                 6
 2018-08-09-0550-17M.NSN___020                                                 6
 OLDACT:UP  21-06-24 09:40 OP:rosa STATUS:               ID:20180809054948     3
 OLDACT:UP  19-06-14 12:19 OP:rob  STATUS:               ID:20180809054948     3
 OLDACT:UP  19-06-11 18:32 OP:rob  STATUS:               ID:20180809054948     3
 OLDACT:ARG 19-06-06 12:26 OP:rob  STATUS:               ID:20180809054948     3
 ACTION:UP  21-06-24 09:40 OP:rosa STATUS:               ID:20180809054948     3
 ACTION:SPL 22-05-19 10:01 OP:hele STATUS:               ID:20180809054948     I
 STAT SP IPHASW D HRMM SECON CODA AMPLIT PERI AZIMU VELO AIN AR TRES W  DIS CAZ7
 BYE  HZ EP        550 46.35                              47   -.0501054.10 355 
 BYE  HE ES   2    550 53.17                              47   0.000 554.10 355 
 BYE  HE  IAML     550 53.69         3.6 0.12                         54.10 355 
 LVN  HZ EP        550 47.68                              47   -.0501062.80  30 
 LVN  HE ES   2    550 55.51                              47   0.040 562.80  30 
 TOW  HZ EP        550 50.05                              47   -.0801078.70 129 
 TOW  HE ES   2    550 59.59                              47   -.030 578.70 129 
 AST  HZ EP        550 56.06                              47   0.03010118.0 101 
 AST  HE ES   2    551  9.59                              47   -.220 5118.0 101 
 OHG  HZ EP        551  1.77                              37   0.21010158.0  98 
 OHG  HE ES   2    551 19.39                              37   -.010 5158.0  98 
 
