 2018  616 1810 41.2FL -61.310 -56.943 70.5  BRA  4 .20 1.5LBRA                1
 GAP=347       0.400      40.9    50.0 32.3 -0.1963E+04  0.1262E+04 -0.1126E+04E
 2018-06-16-1810-00S.NSN___021                                                 6
 2018-06-16-1810-21M.NSN___020                                                 6
 OLDACT:UP  21-06-22 12:46 OP:rosa STATUS:               ID:20180616181000     3
 OLDACT:UP  21-06-22 12:46 OP:rosa STATUS:               ID:20180616181000     3
 OLDACT:UP  21-04-06 22:48 OP:rosa STATUS:               ID:20180616181000     3
 OLDACT:UP  19-06-13 17:24 OP:rob  STATUS:               ID:20180616181000     3
 OLDACT:UP  19-06-10 18:46 OP:4    STATUS:               ID:20180616181000     3
 OLDACT:ARG 19-06-06 12:26 OP:rob  STATUS:               ID:20180616181000     3
 ACTION:UP  21-06-22 12:49 OP:rosa STATUS:               ID:20180616181000     3
 ACTION:SPL 22-05-19 10:01 OP:hele STATUS:               ID:20180616181000     I
 STAT SP IPHASW D HRMM SECON CODA AMPLIT PERI AZIMU VELO AIN AR TRES W  DIS CAZ7
 JUBA HZ EP       1811  2.10                             112   -.14010138.0 221 
 JUBA HN ES   2   1811 17.59                             112   0.020 5138.0 221 
 FRE  HZ EP   1   1811  3.51                             110   0.260 7146.0 226 
 FRE  HE ES   2   1811 19.30                             110   -.020 5146.0 226 
 FRE  HE  IAML    1811 19.83         6.1 0.64                         146.0 226 
 LVN  HN ES   2   1811 38.44                             101   0.180 5235.0 229 
 AST  HZ IP   4   1811 11.91                             101   -3.22 0243.0 201 
 AST  HE ES   4   1811 20.99                             101   -18.9 0243.0 201 
 BYE  HN ES   2   1811 44.54                             100   -.200 5265.0 233 
 
 2018  617 1510  4.7BL -63.102 -62.692 0.60  BRA  7 .30 2.0LBRA                1
 GAP=308       0.630       4.5    31.5 11.4 -0.1759E+02 -0.3213E+03  0.3868E+01E
 2018-06-17-1509-20S.NSN___021                                                 6
 2018-06-17-1509-45M.NSN___020                                                 6
 OLDACT:UP  21-06-22 12:50 OP:rosa STATUS:               ID:20180617150920     3
 OLDACT:UP  21-04-06 22:51 OP:rosa STATUS:               ID:20180617150920     3
 OLDACT:UP  21-04-06 22:51 OP:rosa STATUS:               ID:20180617150920     3
 OLDACT:UP  19-06-13 17:26 OP:rob  STATUS:               ID:20180617150920     3
 OLDACT:UP  19-06-10 18:53 OP:4    STATUS:               ID:20180617150920     3
 OLDACT:ARG 19-06-06 12:26 OP:rob  STATUS:               ID:20180617150920     3
 ACTION:UP  21-06-22 12:53 OP:rosa STATUS:               ID:20180617150920     3
 ACTION:SPL 22-05-19 10:01 OP:hele STATUS:               ID:20180617150920     I
 STAT SP IPHASW D HRMM SECON CODA AMPLIT PERI AZIMU VELO AIN AR TRES W  DIS CAZ7
 BYE  HZ IP     D 1510 20.43                              47   0.1101094.40  60 
 BYE  HE ES   2   1510 32.05                              47   0.330 594.40  60 
 BYE  HE  IAML    1510 33.19        58.7 0.36                         94.40  60 
 LVN  HZ IP   2 D 1510 24.51                              42   -.720 5127.0  68 
 LVN  HE ES   2   1510 39.53                              42   -.700 5127.0  68 
 TOW  HZ EP   1   1510 29.24                              42   0.110 7156.0 112 
 TOW  HN ES   2   1510 47.31                              42   0.340 5156.0 112 
 AST  HZ IP       1510 34.79                              37   -.13010202.0  99 
 AST  HN ES   4   1510 55.83                              37   -1.15 0202.0  99 
 FRE  HZ EP       1510 36.29                              37   -.30010216.0  64 
 FRE  HE ES   2   1510 59.93                              37   0.060 5216.0  64 
 JUBA HZ EP       1510 38.36                              37   0.28010228.0  67 
 JUBA HE ES   2   1511  2.95                              37   0.490 5228.0  67 
 OHG  HZ EP   1   1510 40.11                              37   0.230 7242.0  98 
 OHG  HE ES   2   1511  5.14                              37   -.420 5242.0  98 
 
 2018  619  9 8  2.4BL -63.221 -62.387 0.10  BRA  5 .10 1.9LBRA                1
 GAP=298       0.330       3.8    19.8  8.1 -0.4239E+01 -0.1223E+03 -0.1066E+02E
 2018-06-19-0907-22S.NSN___024                                                 6
 2018-06-19-0907-42M.NSN___020                                                 6
 OLDACT:UP  21-04-07 15:23 OP:rosa STATUS:               ID:20180619090722     3
 OLDACT:UP  21-04-07 15:23 OP:rosa STATUS:               ID:20180619090722     3
 OLDACT:UP  21-04-07 15:23 OP:rosa STATUS:               ID:20180619090722     3
 OLDACT:UP  19-06-13 17:28 OP:rob  STATUS:               ID:20180619090722     3
 OLDACT:UP  19-06-10 19:01 OP:4    STATUS:               ID:20180619090722     3
 OLDACT:ARG 19-06-06 12:26 OP:rob  STATUS:               ID:20180619090722     3
 ACTION:UP  21-06-22 12:55 OP:rosa STATUS:               ID:20180619090722     3
 ACTION:SPL 22-05-19 10:01 OP:hele STATUS:               ID:20180619090722     I
 STAT SP IPHASW D HRMM SECON CODA AMPLIT PERI AZIMU VELO AIN AR TRES W  DIS CAZ7
 BYE  HZ EP   2    9 8 17.25                              47   -.160 590.00  47 
 BYE  HE ES   2    9 8 28.35                              47   -.020 590.00  47 
 LVN  HZ EP   2    9 8 21.59                              47   -.240 5119.0  59 
 LVN  HE ES   2    9 8 35.95                              47   -.060 5119.0  59 
 TOW  HZ EP   1    9 8 24.28                              42   -.030 7137.0 109 
 FRE  HZ EP        9 8 33.57                              37   0.08010209.0  59 
 FRE  HN ES   2    9 8 56.39                              37   0.210 5209.0  59 
 JUBA HZ  IAML     9 8 39.53         9.4 0.46                         220.0  62 
 
 2018  625  413 47.5BL -62.752 -59.342 2.80  BRA  7 .20 1.2LBRA 1.7CBRA        1
 GAP=100       0.440       1.1     2.7  3.7  0.1827E+00  0.1066E+00  0.9514E-01E
 108.0      38.0    -102.0  8.0 10.0 10.0  0.0  0.1           TES FPFIT    F
 2018-06-25-0412-56S.NSN___024                                                 6
 2018-06-25-0413-28M.NSN___020                                                 6
 OLDACT:UP  21-06-22 12:56 OP:rosa STATUS:               ID:20180625041256     3
 OLDACT:UP  21-04-07 15:56 OP:rosa STATUS:               ID:20180625041256     3
 OLDACT:UP  21-04-07 15:53 OP:rosa STATUS:               ID:20180625041256     3
 OLDACT:UP  19-06-13 18:04 OP:rob  STATUS:               ID:20180625041256     3
 OLDACT:UP  19-06-10 19:35 OP:4    STATUS:               ID:20180625041256     3
 OLDACT:ARG 19-06-06 12:26 OP:rob  STATUS:               ID:20180625041256     3
 ACTION:UP  21-06-22 12:56 OP:rosa STATUS:               ID:20180625041256     3
 ACTION:SPL 22-05-19 10:01 OP:hele STATUS:               ID:20180625041256     I
 STAT SP IPHASW D HRMM SECON CODA AMPLIT PERI AZIMU VELO AIN AR TRES W  DIS CAZ7
 LVN  HZ EP        413 56.63   35                         47   -.1101054.40 280 
 LVN  HE ES   2    414  3.63                              47   0.130 554.40 280 
 FRE  HZ EP     C  413 58.00                              47   -.1701063.80  18 
 FRE  HE ES   2    414  6.00                              47   0.040 563.80  18 
 JUBA HZ EP     C  413 58.66                              47   -.0201067.20  32 
 JUBA HE ES   2    414  6.99                              47   0.140 567.20  32 
 AST  HZ EP     C  413 59.44   34                         47   0.0501071.90 154 
 AST  HE ES   2    414  8.19                              47   0.120 571.90 154 
 BYE  HZ EP        414  2.28                              47   0.0801090.40 275 
 BYE  HE ES   2    414 13.25                              47   0.320 590.40 275 
 BYE  HE  IAML     414 15.57         8.4 0.36                         90.40 275 
 TOW  HZ EP     C  414  2.92                              47   -.1701096.30 193 
 TOW  HE ES   2    414 14.23                              47   -.240 596.30 193 
 OHG  HZ EP        414  3.51                              47   0.3301096.90 132 
 OHG  HE ES   2    414 14.12                              47   -.510 596.90 132 
 
 2018  628  726  8.9SL -63.471 -61.623 95.3  BRA  3 .30 0.7LBRA 2.9CBRA        1
 GAP=346       0.590      60.2    48.1 24.9 -0.2570E+04  0.1041E+04 -0.1295E+04E
 2018-06-28-0725-36S.NSN___024                                                 6
 2018-06-28-0725-49M.NSN___020                                                 6
 OLDACT:UP  21-06-22 13:35 OP:rosa STATUS:               ID:20180628072536     3
 OLDACT:UP  21-04-07 16:11 OP:rosa STATUS:               ID:20180628072536     3
 OLDACT:UP  21-04-07 16:10 OP:rosa STATUS:               ID:20180628072536     3
 OLDACT:UP  21-04-07 16:09 OP:rosa STATUS:               ID:20180628072536     3
 OLDACT:UP  19-06-13 18:38 OP:rob  STATUS:               ID:20180628072536     3
 OLDACT:UP  19-06-11 10:50 OP:rob  STATUS:               ID:20180628072536     3
 OLDACT:ARG 19-06-06 12:26 OP:rob  STATUS:               ID:20180628072536     3
 ACTION:UP  21-06-22 13:36 OP:rosa STATUS:               ID:20180628072536     3
 ACTION:SPL 22-05-19 10:01 OP:hele STATUS:               ID:20180628072536     I
 STAT SP IPHASW D HRMM SECON CODA AMPLIT PERI AZIMU VELO AIN AR TRES W  DIS CAZ7
 TOW  HZ EP        726 27.70                             133   -.2401092.50  99 
 TOW  HN ES   2    726 42.19                             133   0.370 592.50  99 
 AST  HZ EP        726 34.09                             120   0.31010147.0  85 
 AST  HE ES   2    726 51.42                             120   -.500 5147.0  85 
 OHG  HE ES   2    727  0.04                             114   -.130 5187.0  87 
 OHG  HE  IAML     727  5.03         0.6 0.40                         187.0  87 
 OHG  HZ EP   1    726 38.54                             114   -.010 7187.0  87 
 
 2018  630 1521 28.5SL -64.094 -61.067 48.6  BRA  3 .10 0.6LBRA                1
 GAP=346       0.350      30.3    30.7 28.2 -0.8436E+03 -0.7075E+03  0.7981E+03E
 2018-06-30-1520-53S.NSN___024                                                 6
 2018-06-30-1521-09M.NSN___020                                                 6
 OLDACT:UP  21-04-07 16:22 OP:rosa STATUS:               ID:20180630152053     3
 OLDACT:UP  19-06-13 18:44 OP:rob  STATUS:               ID:20180630152053     3
 OLDACT:UP  19-06-13 18:43 OP:rob  STATUS:               ID:20180630152053     3
 OLDACT:UP  19-06-11 11:39 OP:rob  STATUS:               ID:20180630152053     3
 OLDACT:ARG 19-06-06 12:26 OP:rob  STATUS:               ID:20180630152053     3
 ACTION:UP  21-06-22 13:46 OP:rosa STATUS:               ID:20180630152053     3
 ACTION:SPL 22-05-19 10:01 OP:hele STATUS:               ID:20180630152053     I
 STAT SP IPHASW D HRMM SECON CODA AMPLIT PERI AZIMU VELO AIN AR TRES W  DIS CAZ7
 TOW  HZ EP       1521 43.20                             113   0.0901084.40  49 
 TOW  HE ES   2   1521 53.55                             113   -.210 584.40  49 
 AST  HZ EP   1   1521 50.80                             102   -.000 7145.0  55 
 AST  HE ES   2   1522  7.08                             102   0.000 5145.0  55 
 OHG  HZ EP       1521 55.16                             100   -.09010179.0  63 
 OHG  HE ES   2   1522 14.98                             100   0.210 5179.0  63 
 OHG  HE  IAML    1522 20.49         0.6 0.28                         179.0  63 
 
 2018  7 2 1527 54.2SL -62.063 -60.463 0.00  BRA  7 .20 1.1LBRA                1
 GAP=256       0.510       4.5     6.1  2.9 -0.2369E+02 -0.1406E+02  0.1112E+02E
 141.0      88.0      98.0  4.0  5.0 44.0  0.0  0.1           TES FPFIT    F
 2018-07-02-1527-00S.NSN___024                                                 6
 2018-07-02-1527-34M.NSN___020                                                 6
 OLDACT:UP  21-06-22 13:52 OP:rosa STATUS:               ID:20180702152700     3
 OLDACT:UP  21-04-07 16:58 OP:rosa STATUS:               ID:20180702152700     3
 OLDACT:UP  21-04-07 16:57 OP:rosa STATUS:               ID:20180702152700     3
 OLDACT:UP  19-06-13 18:52 OP:rob  STATUS:               ID:20180702152700     3
 OLDACT:UP  19-06-11 11:56 OP:rob  STATUS:               ID:20180702152700     3
 OLDACT:ARG 19-06-06 12:26 OP:rob  STATUS:               ID:20180702152700     3
 ACTION:UP  21-06-22 13:52 OP:rosa STATUS:               ID:20180702152700     3
 ACTION:SPL 22-05-19 10:01 OP:hele STATUS:               ID:20180702152700     I
 STAT SP IPHASW D HRMM SECON CODA AMPLIT PERI AZIMU VELO AIN AR TRES W  DIS CAZ7
 LVN  HZ EP       1528  7.79                              31   0.2201066.90 177 
 LVN  HE ES       1528 17.41                              31   0.1001066.90 177 
 BYE  HZ EP       1528  8.70                              31   -.0101074.90 206 
 BYE  HE ES       1528 19.19                              31   -.0901074.90 206 
 FRE  HZ EP     C 1528  9.56                              31   0.1101080.00 102 
 FRE  HE ES       1528 20.58                              31   0.0301080.00 102 
 FRE  HE  IAML    1528 20.75         8.6 0.16                         80.00 102 
 JUBA HZ EP     C 1528 11.74                              31   0.0101095.80 102 
 JUBA HE ES       1528 24.58                              31   0.0701095.80 102 
 AST  HZ EP       1528 21.50                              29   -.31010167.0 148 
 AST  HE ES       1528 41.56                              29   -.37010167.0 148 
 TOW  HZ EP     D 1528 22.63                              29   -.07010174.0 169 
 TOW  HE ES       1528 43.79                              29   0.32010174.0 169 
 OHG  HZ EP     C 1528 25.11                              29   -.02010192.0 138 
 OHG  HE ES       1528 47.70                              29   0.01010192.0 138 
 
 2018  7 2 1954 47.7SL -62.735 -59.304 9.50  BRA  6 .40 0.5LBRA 1.2CBRA        1
 GAP=103       0.760       2.3     5.3  8.1  0.3593E+01  0.1332E+02  0.6178E+01E
 2018-07-02-1954-00S.NSN___024                                                 6
 2018-07-02-1954-28M.NSN___020                                                 6
 OLDACT:UP  21-04-07 17:02 OP:rosa STATUS:               ID:20180702195400     3
 OLDACT:UP  19-06-13 19:00 OP:rob  STATUS:               ID:20180702195400     3
 OLDACT:UP  19-06-13 18:59 OP:rob  STATUS:               ID:20180702195400     3
 OLDACT:UP  19-06-11 12:41 OP:rob  STATUS:               ID:20180702195400     3
 OLDACT:ARG 19-06-06 12:26 OP:rob  STATUS:               ID:20180702195400     3
 ACTION:UP  21-04-07 17:03 OP:rosa STATUS:               ID:20180702195400     3
 ACTION:SPL 22-05-19 10:01 OP:hele STATUS:               ID:20180702195400     I
 STAT SP IPHASW D HRMM SECON CODA AMPLIT PERI AZIMU VELO AIN AR TRES W  DIS CAZ7
 FRE  HZ EP       1954 58.86                              53   0.1901061.50  17 
 JUBA HE ES   2   1955  7.07                              53   -.390 564.60  31 
 AST  HZ EP       1955  0.53   24                         53   0.2601072.70 156 
 BYE  HZ EP   1   1955  3.42                              53   0.360 792.20 274 
 TOW  HN ES   2 D 1955 15.76                              53   -.100 598.50 194 
 JUBA HZ EP   1   1954 58.85                              53   -.260 764.60  31 
 OHG  HZ EP       1955  3.70                              53          96.70 133 
 TOW  HZ EP   1   1955  3.92                              53          98.50 194 
 BYE  HE ES   2   1955 14.25                              53   -.0401092.20 274 
 AST  HE ES   2   1955  9.32                              53   -.1501072.70 156 
 OHG  HE ES   2   1955 15.67                              53          96.70 133 
 
 2018  7 3 19 7 37.5SL -63.488 -60.139 17.2  BRA  3 .00-0.9LBRA                1
 GAP=313       0.310       8.0    12.9  4.9 -0.5882E+02  0.4010E+01 -0.1464E+02E
 2018-07-03-1906-53S.NSN___024                                                 6
 2018-07-03-1907-18M.NSN___020                                                 6
 OLDACT:UP  21-06-22 14:31 OP:rosa STATUS:               ID:20180703190653     3
 OLDACT:UP  21-04-06 23:06 OP:rosa STATUS:               ID:20180703190653     3
 OLDACT:UP  21-04-06 23:00 OP:rosa STATUS:               ID:20180703190653     3
 OLDACT:UP  19-06-13 19:17 OP:rob  STATUS:               ID:20180703190653     3
 OLDACT:UP  19-06-11 13:00 OP:rob  STATUS:               ID:20180703190653     3
 OLDACT:ARG 19-06-06 12:26 OP:rob  STATUS:               ID:20180703190653     3
 ACTION:UP  21-06-22 14:32 OP:rosa STATUS:               ID:20180703190653     3
 ACTION:SPL 22-05-19 10:01 OP:hele STATUS:               ID:20180703190653     I
 STAT SP IPHASW D HRMM SECON CODA AMPLIT PERI AZIMU VELO AIN AR TRES W  DIS CAZ7
 TOW  HZ EP   2   19 7 42.51                             114   -.000 521.20 123 
 AST  HZ EP   1   19 7 50.00                              94   0.010 774.00  77 
 AST  HN ES   2   19 7 59.12                              94   -.010 574.00  77 
 AST  HN  IAML    19 8  3.12         0.1 0.32                         74.00  77 
 OHG  HZ EP       19 7 55.67                              68   -.00010114.0  82 
 OHG  HE ES   2   19 8  8.97                              68   0.010 5114.0  82 
 
 2018  710  010 11.4SL -62.805 -62.019 47.1  BRA  7 .30 2.9LBRA                1
 GAP=299       0.610       3.9    10.0  6.0  0.1645E+01  0.1577E+02  0.1154E+02E
 2018-07-10-0009-21S.NSN___024                                                 6
 2018-07-10-0009-51M.NSN___020                                                 6
 OLDACT:UP  21-04-07 18:37 OP:rosa STATUS:               ID:20180710000921     3
 OLDACT:UP  21-04-07 18:37 OP:rosa STATUS:               ID:20180710000921     3
 OLDACT:UP  21-04-07 18:36 OP:rosa STATUS:               ID:20180710000921     3
 OLDACT:UP  21-04-07 18:36 OP:rosa STATUS:               ID:20180710000921     3
 OLDACT:UP  19-06-14 09:57 OP:rob  STATUS:               ID:20180710000921     3
 OLDACT:UP  19-06-11 13:20 OP:rob  STATUS:               ID:20180710000921     3
 OLDACT:ARG 19-06-06 12:26 OP:rob  STATUS:               ID:20180710000921     3
 ACTION:UP  21-06-22 14:39 OP:rosa STATUS:               ID:20180710000921     3
 ACTION:SPL 22-05-19 10:01 OP:hele STATUS:               ID:20180710000921     I
 STAT SP IPHASW D HRMM SECON CODA AMPLIT PERI AZIMU VELO AIN AR TRES W  DIS CAZ7
 BYE  HZ EP        010 21.73                             128   -.0901049.50  72 
 BYE  HE ES        010 29.45                             128   -.0101049.50  72 
 LVN  HZ EP     D  010 25.62                             112   -.3201084.90  80 
 LVN  HE ES        010 36.69                             112   0.1001084.90  80 
 LVN  HE  IAML     010 37.07       439.9 0.20                         84.90  80 
 TOW  HZ EP        010 33.54                             102   0.21010143.0 129 
 TOW  HE ES   2    010 49.95                             102   0.580 5143.0 129 
 FRE  HZ EP   1    010 36.94                              99   -.120 7171.0  68 
 FRE  HE ES   2    010 56.32                              99   0.500 5171.0  68 
 AST  HZ EP        010 37.91                              99   0.02010177.0 111 
 JUBA HZ EP        010 38.82                              99   0.06010184.0  71 
 JUBA HE ES   2    010 59.29                              99   0.520 5184.0  71 
 OHG  HZ EP        010 43.15                              97   0.15010216.0 107 
 OHG  HE ES        011  5.67                              97   -.44010216.0 107 
 
