 2018  920 1847 52.0SL -62.245 -60.300 21.1  BRA  6 .20 1.6LBRA                1
 GAP=226       0.510       2.8     5.3  3.8 -0.1006E+02 -0.1044E+02  0.5962E+01E
 2018-09-20-1847-00S.NSN___024                                                 6
 2018-09-20-1847-32M.NSN___020                                                 6
 OLDACT:UP  21-06-24 11:37 OP:rosa STATUS:               ID:20180920184700     3
 OLDACT:UP  21-06-24 11:36 OP:rosa STATUS:               ID:20180920184700     3
 OLDACT:UP  21-04-08 19:13 OP:rosa STATUS:               ID:20180920184700     3
 OLDACT:UP  19-06-17 16:11 OP:rob  STATUS:               ID:20180920184700     3
 OLDACT:UP  19-06-12 15:25 OP:rob  STATUS:               ID:20180920184700     3
 OLDACT:ARG 19-06-06 12:26 OP:rob  STATUS:               ID:20180920184700     3
 ACTION:UP  21-06-24 11:38 OP:rosa STATUS:               ID:20180920184700     3
 ACTION:SPL 22-05-19 10:01 OP:hele STATUS:               ID:20180920184700     I
 STAT SP IPHASW D HRMM SECON CODA AMPLIT PERI AZIMU VELO AIN AR TRES W  DIS CAZ7
 LVN  HZ EP       1848  0.78                             104   0.0501046.80 186 
 LVN  HE ES       1848  7.05                             104   -.0501046.80 186 
 BYE  HZ EP       1848  2.93                              99   -.0201062.50 221 
 BYE  HE ES   2   1848 10.78                              99   -.160 562.50 221 
 FRE  HZ EP     C 1848  4.07                              98   0.0901069.80  87 
 FRE  HE ES   2   1848 12.69                              98   -.030 569.80  87 
 FRE  HE  IAML    1848 13.09        31.6 0.28                         69.80  87 
 JUBA HZ IP       1848  6.22                              96   0.0501085.10  90 
 JUBA HE ES   2   1848 16.68                              96   0.170 585.10  90 
 AST  HZ EP     C 1848 13.93                              68   -.33010146.0 147 
 AST  HE ES       1848 30.28                              68   -.24010146.0 147 
 TOW  HZ EP       1848 15.23                              68   0.05010152.0 170 
 TOW  HE ES       1848 32.50                              68   0.40010152.0 170 
 
 2018  922  750 25.0SL -62.739 -59.328 10.2  BRA  7 .30 1.7LBRA                1
 GAP=101       0.510       1.4     3.3  4.9  0.2080E+00  0.2025E+00  0.1737E+00E
 147.0      58.0    -180.0  9.0 40.0 40.0  0.0  0.1           TES FPFIT    F
 2018-09-22-0749-35S.NSN___024                                                 6
 2018-09-22-0750-05M.NSN___020                                                 6
 OLDACT:UP  21-06-24 11:44 OP:rosa STATUS:               ID:20180922074935     3
 OLDACT:UP  21-06-24 11:44 OP:rosa STATUS:               ID:20180922074935     3
 OLDACT:UP  21-04-08 19:14 OP:rosa STATUS:               ID:20180922074935     3
 OLDACT:UP  21-04-08 12:47 OP:rosa STATUS:               ID:20180922074935     3
 OLDACT:UP  21-04-08 12:46 OP:rosa STATUS:               ID:20180922074935     3
 OLDACT:UP  19-06-17 16:19 OP:rob  STATUS:               ID:20180922074935     3
 OLDACT:UP  19-06-12 15:36 OP:rob  STATUS:               ID:20180922074935     3
 OLDACT:ARG 19-06-06 12:26 OP:rob  STATUS:               ID:20180922074935     3
 ACTION:UP  21-06-24 11:46 OP:rosa STATUS:               ID:20180922074935     3
 ACTION:SPL 22-05-19 10:01 OP:hele STATUS:               ID:20180922074935     I
 STAT SP IPHASW D HRMM SECON CODA AMPLIT PERI AZIMU VELO AIN AR TRES W  DIS CAZ7
 LVN  HZ EP        750 34.77                              50   -.3001054.90 278 
 LVN  HE ES   2    750 41.92                              50   -.520 554.90 278 
 FRE  HZ EP        750 36.12                              50   -.0101062.20  18 
 FRE  HE ES   2    750 44.29                              50   0.020 562.20  18 
 JUBA HZ EP        750 36.56                              50   -.0501065.60  32 
 JUBA HE ES   2    750 45.29                              50   0.190 565.60  32 
 AST  HZ EP        750 37.69                              50   0.0401072.80 155 
 AST  HN ES   2    750 46.25                              50   -.660 572.80 155 
 BYE  HZ EP        750 40.52                              50   0.2601091.00 274 
 BYE  HE ES   2    750 51.95                              50   0.520 591.00 274 
 BYE  HE  IAML     750 56.07        27.5 0.40                         91.00 274 
 OHG  HZ EP        750 41.21                              50   0.0301097.30 133 
 OHG  HN ES   2    750 53.20                              50   0.190 597.30 133 
 TOW  HZ EP        750 41.28                              50   0.0301097.80 193 
 TOW  HE ES   2    750 53.39                              50   0.260 597.80 193 
 
 2018  923  811 22.6FL -61.474 -56.481 0.00  BRA  4 .30 2.3LBRA                1
 GAP=353       0.610      34.0   152.5 19.1 -0.4610E+03  0.2744E+04  0.1468E+03E
 2018-09-23-0810-44S.NSN___024                                                 6
 2018-09-23-0811-03M.NSN___020                                                 6
 OLDACT:UP  21-06-24 11:46 OP:rosa STATUS:               ID:20180923081044     3
 OLDACT:UP  21-04-08 19:24 OP:rosa STATUS:               ID:20180923081044     3
 OLDACT:UP  21-04-08 19:18 OP:rosa STATUS:               ID:20180923081044     3
 OLDACT:UP  21-04-08 19:17 OP:rosa STATUS:               ID:20180923081044     3
 OLDACT:UP  19-06-17 16:27 OP:rob  STATUS:               ID:20180923081044     3
 OLDACT:UP  19-06-12 15:51 OP:rob  STATUS:               ID:20180923081044     3
 OLDACT:ARG 19-06-06 12:26 OP:rob  STATUS:               ID:20180923081044     3
 ACTION:UP  21-06-24 11:47 OP:rosa STATUS:               ID:20180923081044     3
 ACTION:SPL 22-05-19 10:01 OP:hele STATUS:               ID:20180923081044     I
 STAT SP IPHASW D HRMM SECON CODA AMPLIT PERI AZIMU VELO AIN AR TRES W  DIS CAZ7
 JUBA HZ EP        811 43.92                              18   0.27010143.0 233 
 JUBA HE ES   2    811 58.59                              18   -.450 5143.0 233 
 JUBA HZ  IAML     812  1.18        59.6 0.42                         143.0 233 
 FRE  HZ EP        811 45.70                              18   -.37010154.0 237 
 FRE  HE ES   4    812  0.86                              18   -2.38 0154.0 237 
 LVN  HZ EP        811 57.63                              17   0.08010243.0 235 
 LVN  HE ES   2    812 23.21                              17   0.110 5243.0 235 
 BYE  HZ EP        812  2.67                              17   -.01010276.0 239 
 BYE  HE ES   2    812 32.41                              17   0.440 5276.0 239 
 
 2018  925 1544  0.8FL -61.690 -57.438 15.5  BRA  4 .30 2.4LBRA                1
 GAP=314       0.600       6.4     9.8  5.6 -0.1282E+02 -0.8592E+01  0.5294E+01E
 2018-09-25-1543-14S.NSN___024                                                 6
 2018-09-25-1543-41M.NSN___020                                                 6
 OLDACT:UP  21-06-24 11:48 OP:rosa STATUS:               ID:20180925154314     3
 OLDACT:UP  21-04-08 19:27 OP:rosa STATUS:               ID:20180925154314     3
 OLDACT:UP  21-04-08 19:26 OP:rosa STATUS:               ID:20180925154314     3
 OLDACT:UP  21-04-08 19:26 OP:rosa STATUS:               ID:20180925154314     3
 OLDACT:UP  21-04-08 19:26 OP:rosa STATUS:               ID:20180925154314     3
 OLDACT:UP  19-06-17 16:29 OP:rob  STATUS:               ID:20180925154314     3
 OLDACT:UP  19-06-12 15:57 OP:rob  STATUS:               ID:20180925154314     3
 OLDACT:ARG 19-06-06 12:26 OP:rob  STATUS:               ID:20180925154314     3
 ACTION:UP  21-06-25 11:02 OP:rosa STATUS:               ID:20180925154314     3
 ACTION:SPL 22-05-19 10:01 OP:hele STATUS:               ID:20180925154314     I
 STAT SP IPHASW D HRMM SECON CODA AMPLIT PERI AZIMU VELO AIN AR TRES W  DIS CAZ7
 JUBA HZ EP     C 1544 14.35                              96   0.1001088.60 226 
 JUBA HE ES       1544 24.22                              96   0.1301088.60 226 
 JUBA HE  IAML    1544 24.60       137.2 0.24                         88.60 226 
 FRE  HZ EP     C 1544 15.40                              95   -.2601098.50 234 
 FRE  HE ES   2   1544 26.29                              95   -.230 598.50 234 
 OHG  HZ EP   1   1544 27.81                              69   0.440 7183.0 187 
 OHG  HN ES   2   1544 46.06                              69   -.720 5183.0 187 
 LVN  HZ EP       1544 27.91                              69   -.07010188.0 233 
 LVN  HN ES       1544 47.92                              69   0.08010188.0 233 
 
 2018  925 1744 26.2FL -61.709 -57.590 80.2  BRA  6 .30 3.0LBRA                1
 GAP=307       0.750       5.4    14.2 10.3  0.3899E+02 -0.5288E+02 -0.1906E+02E
 68.0      18.0      31.0 55.0 35.0 60.0  0.0  0.1           TES FPFIT    F
 2018-09-25-1743-42S.NSN___024                                                 6
 2018-09-25-1744-06M.NSN___020                                                 6
 OLDACT:UP  21-04-08 19:29 OP:rosa STATUS:               ID:20180925174342     3
 OLDACT:UP  19-06-17 16:30 OP:rob  STATUS:               ID:20180925174342     3
 OLDACT:UP  19-06-12 16:04 OP:rob  STATUS:               ID:20180925174342     3
 OLDACT:UP  19-06-12 16:03 OP:rob  STATUS:               ID:20180925174342     3
 OLDACT:ARG 19-06-06 12:26 OP:rob  STATUS:               ID:20180925174342     3
 ACTION:UP  21-04-08 19:31 OP:rosa STATUS:               ID:20180925174342     3
 ACTION:SPL 22-05-19 10:01 OP:hele STATUS:               ID:20180925174342     I
 STAT SP IPHASW D HRMM SECON CODA AMPLIT PERI AZIMU VELO AIN AR TRES W  DIS CAZ7
 JUBA HZ IP     D 1744 42.91                             132   0.1601081.40 223 
 JUBA HN ES   2   1744 54.80                             132   -.020 581.40 223 
 JUBA HN  IAML    1744 55.53       350.0 0.22                         81.40 223 
 FRE  HZ IP     D 1744 43.73                             129   0.0201090.80 232 
 FRE  HN ES   2   1744 56.39                             129   -.090 590.80 232 
 OHG  HZ IP     D 1744 54.16                             111   -.06010180.0 185 
 OHG  HN ES       1745 14.08                             111   -.59010180.0 185 
 LVN  HZ IP     D 1744 54.05                             111   -.15010180.0 233 
 LVN  HN ES   2   1745 14.33                             111   -.300 5180.0 233 
 AST  HZ IP     D 1744 55.50                             110   0.18010189.0 197 
 AST  HE ES       1745 17.21                             110   0.65010189.0 197 
 BYE  HZ IP     D 1744 58.10                             107   -.04010212.0 238 
 BYE  HN ES   2   1745 21.17                             107   -.280 5212.0 238 
 
 2018  926  922 26.5BL -62.780 -59.272 0.10  BRA  5 .20 1.8LBRA                1
 GAP=141       0.430       1.7     4.3  4.7  0.2481E+01  0.3757E+01  0.1906E+00E
 2018-09-26-0921-37S.NSN___024                                                 6
 2018-09-26-0922-07M.NSN___020                                                 6
 OLDACT:UP  21-04-08 19:31 OP:rosa STATUS:               ID:20180926092137     3
 OLDACT:UP  21-04-08 09:47 OP:rosa STATUS:               ID:20180926092137     3
 OLDACT:UP  21-04-08 09:46 OP:rosa STATUS:               ID:20180926092137     3
 OLDACT:UP  19-06-17 16:33 OP:rob  STATUS:               ID:20180926092137     3
 OLDACT:UP  19-06-12 16:07 OP:rob  STATUS:               ID:20180926092137     3
 OLDACT:ARG 19-06-06 12:26 OP:rob  STATUS:               ID:20180926092137     3
 ACTION:UP  21-06-24 11:50 OP:rosa STATUS:               ID:20180926092137     3
 ACTION:SPL 22-05-19 10:01 OP:hele STATUS:               ID:20180926092137     I
 STAT SP IPHASW D HRMM SECON CODA AMPLIT PERI AZIMU VELO AIN AR TRES W  DIS CAZ7
 LVN  HZ EP        922 36.75                              47   -.0301058.50 282 
 LVN  HN ES   2    922 44.32                              47   0.050 558.50 282 
 LVN  HN  IAML     922 45.69        68.9 3.49                         58.50 282 
 FRE  HZ EP   2    922 37.71                              47   -.170 565.80  14 
 FRE  HN ES   2    922 46.43                              47   0.260 565.80  14 
 AST  HZ EP        922 38.10                              47   -.0401067.50 155 
 AST  HE ES   2    922 46.86                              47   0.250 567.50 155 
 TOW  HZ EP   2    922 41.57                              47   -.600 594.10 196 
 TOW  HE ES   2    922 53.96                              47   0.360 594.10 196 
 BYE  HE ES   2    922 53.78                              47   0.140 594.30 277 
 
 2018  929  5 2 50.8FL -61.458 -58.077 2.50  BRA  5 .30 2.1LBRA                1
 GAP=309       0.560      10.7    12.0 16.7  0.3603E+02  0.7567E+02  0.1428E+03E
 2018-09-29-0502-00S.NSN___024                                                 6
 2018-09-29-0502-31M.NSN___020                                                 6
 OLDACT:UP  21-06-24 12:13 OP:rosa STATUS:               ID:20180929050200     3
 OLDACT:UP  21-06-24 12:11 OP:rosa STATUS:               ID:20180929050200     3
 OLDACT:UP  21-04-08 19:34 OP:rosa STATUS:               ID:20180929050200     3
 OLDACT:UP  21-04-08 19:33 OP:rosa STATUS:               ID:20180929050200     3
 OLDACT:UP  21-04-08 19:31 OP:rosa STATUS:               ID:20180929050200     3
 OLDACT:UP  19-06-17 16:34 OP:rob  STATUS:               ID:20180929050200     3
 OLDACT:UP  19-06-12 16:15 OP:rob  STATUS:               ID:20180929050200     3
 OLDACT:ARG 19-06-06 12:26 OP:rob  STATUS:               ID:20180929050200     3
 ACTION:UP  21-06-24 12:15 OP:rosa STATUS:               ID:20180929050200     3
 ACTION:SPL 22-05-19 10:01 OP:hele STATUS:               ID:20180929050200     I
 STAT SP IPHASW D HRMM SECON CODA AMPLIT PERI AZIMU VELO AIN AR TRES W  DIS CAZ7
 JUBA HZ EP   1    5 3  5.50                              64   0.420 792.10 199 
 JUBA HE ES   2    5 3 15.82                              64   0.300 592.10 199 
 JUBA HE  IAML     5 3 16.59       252.4 0.28                         92.10 199 
 FRE  HZ EP        5 3  5.67                              64   0.1101095.50 209 
 FRE  HE ES   2    5 3 15.96                              64   -.390 595.50 209 
 FRE  HE  IAML     5 3 18.45        16.1 0.12                         95.50 209 
 LVN  HZ EP   1    5 3 17.25                              64   -.460 7181.0 221 
 LVN  HE ES   2    5 3 37.13                              64   -.250 5181.0 221 
 OHG  HE ES   2    5 3 43.82                              57   -.090 5208.0 178 
 BYE  HZ EP   2    5 3 21.63                              57   0.190 5208.0 228 
 BYE  HE ES   2    5 3 44.18                              57   0.360 5208.0 228 
 OHG  HZ EP   1    5 3 21.28                              57   -.210 7208.0 178 
 
 2018  929 1217 24.5SL -61.904 -59.814 3.50  BRA  4 .10 2.0LBRA                1
 GAP=265       0.380       9.3     5.0  8.8 -0.4121E+02 -0.3403E+02  0.7314E+02E
 2018-09-29-1216-36S.NSN___024                                                 6
 2018-09-29-1217-05M.NSN___020                                                 6
 OLDACT:UP  21-04-08 19:35 OP:rosa STATUS:               ID:20180929121636     3
 OLDACT:UP  19-06-17 16:35 OP:rob  STATUS:               ID:20180929121636     3
 OLDACT:UP  19-06-12 16:19 OP:rob  STATUS:               ID:20180929121636     3
 OLDACT:ARG 19-06-06 12:26 OP:rob  STATUS:               ID:20180929121636     3
 ACTION:UP  21-06-24 12:15 OP:rosa STATUS:               ID:20180929121636     3
 ACTION:SPL 22-05-19 10:01 OP:hele STATUS:               ID:20180929121636     I
 STAT SP IPHASW D HRMM SECON CODA AMPLIT PERI AZIMU VELO AIN AR TRES W  DIS CAZ7
 FRE  HZ EP   1   1217 35.67                              50   0.140 756.00 127 
 FRE  HE ES       1217 43.74                              50   0.1301056.00 127 
 JUBA HZ EP   1   1217 37.67                              50   0.020 770.70 122 
 JUBA HE ES       1217 47.13                              50   -.1601070.70 122 
 JUBA HE  IAML    1217 47.55        71.7 0.26                         70.70 122 
 LVN  HZ EP   1   1217 40.20                              50   -.180 789.70 199 
 LVN  HE ES       1217 51.96                              50   -.0401089.70 199 
 BYE  HE ES       1217 56.65                              50   0.08010108.0 218 
 
 2018  929 2010 51.9BL -62.751 -59.297 0.10  BRA  4 .20 1.7LBRA                1
 GAP=245       0.520      14.2    17.0  9.9 -0.2376E+03  0.1507E+03 -0.1274E+03E
 2018-09-29-2010-00S.NSN___024                                                 6
 2018-09-29-2010-32M.NSN___020                                                 6
 OLDACT:UP  21-04-08 19:37 OP:rosa STATUS:               ID:20180929201000     3
 OLDACT:UP  21-04-08 19:36 OP:rosa STATUS:               ID:20180929201000     3
 OLDACT:UP  19-06-17 16:36 OP:rob  STATUS:               ID:20180929201000     3
 OLDACT:UP  19-06-12 16:22 OP:rob  STATUS:               ID:20180929201000     3
 OLDACT:ARG 19-06-06 12:26 OP:rob  STATUS:               ID:20180929201000     3
 ACTION:UP  21-06-24 12:16 OP:rosa STATUS:               ID:20180929201000     3
 ACTION:SPL 22-05-19 10:01 OP:hele STATUS:               ID:20180929201000     I
 STAT SP IPHASW D HRMM SECON CODA AMPLIT PERI AZIMU VELO AIN AR TRES W  DIS CAZ7
 LVN  HZ EP       2011  1.69                              47   -.2101056.70 280 
 LVN  HE ES   2   2011  8.56                              47   -.620 556.70 280 
 FRE  HZ EP       2011  2.81                              47   -.0501063.10  16 
 FRE  HE ES   2   2011 10.63                              47   -.230 563.10  16 
 JUBA HZ EP       2011  3.26                              47   -.0401066.00  30 
 JUBA HE ES       2011 11.75                              47   0.1401066.00  30 
 JUBA HE  IAML    2011 12.76        47.5 1.60                         66.00  30 
 BYE  HZ EP       2011  7.50                              47   0.1501092.70 275 
 BYE  HE ES       2011 18.84                              47   0.2201092.70 275 
 
 2018  930  246 50.6FL -61.072 -58.905 0.60  BRA  3 .20 1.1LBRA                1
 GAP=331       0.480     123.9    49.6104.0  0.5966E+04  0.5023E+04  0.1288E+05E
 2018-09-30-0246-12S.NSN___024                                                 6
 2018-09-30-0246-31M.NSN___020                                                 6
 OLDACT:UP  21-04-08 19:43 OP:rosa STATUS:               ID:20180930024612     3
 OLDACT:UP  21-04-08 19:42 OP:rosa STATUS:               ID:20180930024612     3
 OLDACT:UP  21-04-08 19:42 OP:rosa STATUS:               ID:20180930024612     3
 OLDACT:UP  21-04-08 19:39 OP:rosa STATUS:               ID:20180930024612     3
 OLDACT:UP  19-06-17 16:37 OP:rob  STATUS:               ID:20180930024612     3
 OLDACT:UP  19-06-12 16:25 OP:rob  STATUS:               ID:20180930024612     3
 OLDACT:ARG 19-06-06 12:26 OP:rob  STATUS:               ID:20180930024612     3
 ACTION:UP  21-06-24 12:16 OP:rosa STATUS:               ID:20180930024612     3
 ACTION:SPL 22-05-19 10:01 OP:hele STATUS:               ID:20180930024612     I
 STAT SP IPHASW D HRMM SECON CODA AMPLIT PERI AZIMU VELO AIN AR TRES W  DIS CAZ7
 FRE  HZ EP        247 10.13                              40   0.09010127.0 181 
 FRE  HE  IAML     247 23.80         4.2 2.24                         127.0 181 
 FRE  HE ES        247 24.13                              40   -.13010127.0 181 
 JUBA HZ EP   1    247 10.80                              40   0.180 7131.0 174 
 JUBA HN ES   2    247 25.18                              40   -.080 5131.0 174 
 JUBA HN  IAML     247 30.52        47.2 5.66                         131.0 174 
 LVN  HZ EP   1    247 19.29                              40   -.350 7194.0 203 
 LVN  HN ES        247 41.03                              40   0.16010194.0 203 
 
