 2018  831 1656 17.4FL -60.696 -58.002 28.8  BRA  5 .20 1.3LBRA                1
 GAP=331       0.480       4.9    17.1  8.0 -0.3167E+02  0.6367E+02 -0.1116E+02E
 2018-08-31-1655-42S.NSN___024                                                 6
 2018-08-31-1655-57M.NSN___020                                                 6
 OLDACT:UP  21-06-24 11:13 OP:rosa STATUS:               ID:20180831165542     3
 OLDACT:UP  21-06-24 11:13 OP:rosa STATUS:               ID:20180831165542     3
 OLDACT:UP  21-06-24 11:13 OP:rosa STATUS:               ID:20180831165542     3
 OLDACT:UP  21-04-07 22:49 OP:rosa STATUS:               ID:20180831165542     3
 OLDACT:UP  21-04-07 22:49 OP:rosa STATUS:               ID:20180831165542     3
 OLDACT:UP  21-04-07 22:48 OP:rosa STATUS:               ID:20180831165542     3
 OLDACT:UP  19-06-14 13:10 OP:rob  STATUS:               ID:20180831165542     3
 OLDACT:UP  19-06-12 11:34 OP:rob  STATUS:               ID:20180831165542     3
 OLDACT:ARG 19-06-06 12:26 OP:rob  STATUS:               ID:20180831165542     3
 ACTION:UP  21-06-24 11:14 OP:rosa STATUS:               ID:20180831165542     3
 ACTION:SPL 22-05-19 10:01 OP:hele STATUS:               ID:20180831165542     I
 STAT SP IPHASW D HRMM SECON CODA AMPLIT PERI AZIMU VELO AIN AR TRES W  DIS CAZ7
 JUBA HZ EP       1656 42.72                              92   0.22010175.0 191 
 JUBA HE ES   2   1657  1.23                              92   0.420 5175.0 191 
 FRE  HZ EP     D 1656 42.41                              92   -.17010176.0 196 
 FRE  HE ES       1657  0.81                              92   -.13010176.0 196 
 LVN  HZ EP   1   1656 52.77                              73   0.100 7253.0 209 
 LVN  HE ES   2   1657 18.37                              73   -.040 5253.0 209 
 LVN  HE  IAML    1657 19.42         9.1 0.34                         253.0 209 
 BYE  HZ EP   1   1656 55.54                              73   0.180 7274.0 215 
 BYE  HE ES   2   1657 22.94                              73   -.110 5274.0 215 
 BYE  HE  IAML    1657 27.13         0.8 0.24                         274.0 215 
 AST  HZ EP   1   1656 57.74                              73   -.360 7296.0 187 
 AST  HE ES   2   1657 28.03                              73   0.230 5296.0 187 
 AST  HE  IAML    1657 30.46         0.3 0.24                         296.0 187 
 
 2018  9 5  421 34.7SL -62.498 -59.080 0.00  BRA  4 .20 0.8LBRA                1
 GAP=217       0.470       5.6    11.8  4.3 -0.5814E+02  0.2060E+02 -0.7587E+01E
 2018-09-05-0420-43S.NSN___024                                                 6
 2018-09-05-0421-15M.NSN___020                                                 6
 OLDACT:UP  21-06-24 11:20 OP:rosa STATUS:               ID:20180905042043     3
 OLDACT:UP  21-04-08 15:52 OP:rosa STATUS:               ID:20180905042043     3
 OLDACT:UP  21-04-08 15:51 OP:rosa STATUS:               ID:20180905042043     3
 OLDACT:UP  21-04-08 10:34 OP:rosa STATUS:               ID:20180905042043     3
 OLDACT:UP  21-04-08 10:34 OP:rosa STATUS:               ID:20180905042043     3
 OLDACT:UP  21-04-08 10:33 OP:rosa STATUS:               ID:20180905042043     3
 OLDACT:UP  21-04-08 10:32 OP:rosa STATUS:               ID:20180905042043     3
 OLDACT:UP  21-04-08 10:31 OP:rosa STATUS:               ID:20180905042043     3
 OLDACT:UP  21-04-08 09:34 OP:ROSA STATUS:               ID:20180905042043     3
 OLDACT:UP  21-04-08 09:33 OP:ROSA STATUS:               ID:20180905042043     3
 OLDACT:UP  21-04-08 09:33 OP:ROSA STATUS:               ID:20180905042043     3
 OLDACT:UP  21-04-08 09:32 OP:ROSA STATUS:               ID:20180905042043     3
 OLDACT:UP  21-04-08 09:32 OP:ROSA STATUS:               ID:20180905042043     3
 OLDACT:UP  21-04-08 09:32 OP:ROSA STATUS:               ID:20180905042043     3
 OLDACT:UP  21-04-08 09:31 OP:ROSA STATUS:               ID:20180905042043     3
 OLDACT:UP  21-04-08 08:36 OP:ROSA STATUS:               ID:20180905042043     3
 OLDACT:UP  21-04-08 08:34 OP:ROSA STATUS:               ID:20180905042043     3
 OLDACT:UP  21-04-08 08:34 OP:ROSA STATUS:               ID:20180905042043     3
 OLDACT:UP  21-04-08 08:33 OP:ROSA STATUS:               ID:20180905042043     3
 OLDACT:UP  21-04-08 08:30 OP:ROSA STATUS:               ID:20180905042043     3
 OLDACT:UP  19-06-17 15:30 OP:rob  STATUS:               ID:20180905042043     3
 OLDACT:UP  19-06-12 12:29 OP:rob  STATUS:               ID:20180905042043     3
 OLDACT:ARG 19-06-06 12:26 OP:rob  STATUS:               ID:20180905042043     3
 ACTION:UP  21-06-24 11:22 OP:rosa STATUS:               ID:20180905042043     3
 ACTION:SPL 22-05-19 10:01 OP:hele STATUS:               ID:20180905042043     I
 STAT SP IPHASW D HRMM SECON CODA AMPLIT PERI AZIMU VELO AIN AR TRES W  DIS CAZ7
 FRE  HZ EP        421 41.63                              43   -.2601033.00  11 
 FRE  HE ES   2    421 47.50                              43   0.330 533.00  11 
 FRE  HE  IAML     421 54.69        12.5 1.04                         33.00  11 
 JUBA HZ EP   2    421 42.66                              43   0.170 536.20  37 
 JUBA HN ES   2    421 48.46                              43   0.250 536.20  37 
 LVN  HZ EP   2    421 48.57                              31   0.180 569.70 254 
 BYE  HN ES   2    422  7.44                              31   0.120 5105.0 259 
 
 2018  9 5  422 42.0SL -62.339 -59.278 10.2  BRA  5 .30 2.8LBRA                1
 GAP=160       0.520      10.3    10.1 15.5  0.8512E+02  0.1428E+03  0.1557E+03E
 2018-09-05-0421-48S.NSN___024                                                 6
 2018-09-05-0422-22M.NSN___020                                                 6
 OLDACT:UP  21-04-08 08:27 OP:ROSA STATUS:               ID:20180905042148     3
 OLDACT:UP  21-04-08 08:21 OP:ROSA STATUS:               ID:20180905042148     3
 OLDACT:UP  21-04-08 08:14 OP:ROSA STATUS:               ID:20180905042148     3
 OLDACT:UP  21-04-08 08:13 OP:ROSA STATUS:               ID:20180905042148     3
 OLDACT:UP  19-06-17 15:31 OP:rob  STATUS:               ID:20180905042148     3
 OLDACT:UP  19-06-12 12:33 OP:rob  STATUS:               ID:20180905042148     3
 OLDACT:ARG 19-06-06 12:26 OP:rob  STATUS:               ID:20180905042148     3
 ACTION:UP  21-06-24 11:24 OP:rosa STATUS:               ID:20180905042148     3
 ACTION:SPL 22-05-19 10:01 OP:hele STATUS:               ID:20180905042148     I
 STAT SP IPHASW D HRMM SECON CODA AMPLIT PERI AZIMU VELO AIN AR TRES W  DIS CAZ7
 FRE  HZ EP        422 46.67                             111   -.2401022.10  48 
 FRE  HE ES   2    422 50.42                             111   -.090 522.10  48 
 JUBA HZ EP   1    422 48.84                             103   -.200 733.90  71 
 JUBA HN ES   2    422 54.50                             103   0.300 533.90  71 
 JUBA HN  IAML     422 56.76      1157.9 3.11                         33.90  71 
 LVN  HZ EP        422 53.89                              50   0.0001067.60 237 
 LVN  HE ES   2    423  2.20                              50   -.380 567.60 237 
 BYE  HZ EP   1    422 58.98                              50   0.330 7101.0 248 
 BYE  HE ES   2    423 11.04                              50   0.220 5101.0 248 
 AST  HZ EP        423  0.80                              50   0.24010114.0 165 
 AST  HE ES   2    423 13.75                              50   -.380 5114.0 165 
 
 2018  9 7  4 3  8.8SL -61.556 -58.773 8.40  BRA  4 .10 3.2LBRA 1.3CBRA        1
 GAP=322       0.440      14.0    17.4 16.0  0.2182E+03  0.2506E+03  0.2174E+03E
 2018-09-07-0402-22S.NSN___024                                                 6
 2018-09-07-0402-49M.NSN___020                                                 6
 OLDACT:UP  21-06-24 11:26 OP:rosa STATUS:               ID:20180907040222     3
 OLDACT:UP  21-06-24 11:25 OP:rosa STATUS:               ID:20180907040222     3
 OLDACT:UP  21-04-08 10:21 OP:rosa STATUS:               ID:20180907040222     3
 OLDACT:UP  21-04-08 10:21 OP:rosa STATUS:               ID:20180907040222     3
 OLDACT:UP  21-04-08 10:20 OP:rosa STATUS:               ID:20180907040222     3
 OLDACT:UP  21-04-08 10:19 OP:rosa STATUS:               ID:20180907040222     3
 OLDACT:UP  19-06-17 15:47 OP:rob  STATUS:               ID:20180907040222     3
 OLDACT:UP  19-06-12 13:11 OP:rob  STATUS:               ID:20180907040222     3
 OLDACT:UP  19-06-12 13:10 OP:rob  STATUS:               ID:20180907040222     3
 OLDACT:ARG 19-06-06 12:26 OP:rob  STATUS:               ID:20180907040222     3
 ACTION:UP  21-06-25 10:59 OP:rosa STATUS:               ID:20180907040222     3
 ACTION:SPL 22-05-19 10:01 OP:hele STATUS:               ID:20180907040222     I
 STAT SP IPHASW D HRMM SECON CODA AMPLIT PERI AZIMU VELO AIN AR TRES W  DIS CAZ7
 FRE  HZ EP     D  4 3 21.85   25                         50   0.0701073.10 188 
 FRE  HE ES        4 3 31.26                              50   0.0401073.10 188 
 JUBA HZ EP     D  4 3 22.36   24                         50   0.1501076.10 176 
 JUBA HN ES        4 3 31.77                              50   -.1901076.10 176 
 JUBA HN  IAML     4 3 33.84      1208.9 4.82                         76.10 176 
 LVN  HZ EP     C  4 3 32.44                              45   -.22010149.0 214 
 LVN  HE ES        4 3 50.13                              45   0.09010149.0 214 
 AST  HE ES   2    4 4  1.33                              45   0.210 5197.0 179 
 
 2018  9 8  636 15.3SL -62.222 -59.930 75.1  BRA  3 .00 2.1LBRA                1
 GAP=243       0.310      19.4    26.1  8.1 -0.5007E+03  0.1768E+03 -0.1319E+03E
 2018-09-08-0635-18S.NSN___024                                                 6
 2018-09-08-0635-55M.NSN___020                                                 6
 OLDACT:UP  21-04-08 15:57 OP:rosa STATUS:               ID:20180908063518     3
 OLDACT:UP  21-04-08 15:55 OP:rosa STATUS:               ID:20180908063518     3
 OLDACT:UP  21-04-08 15:53 OP:rosa STATUS:               ID:20180908063518     3
 OLDACT:UP  19-06-17 15:49 OP:rob  STATUS:               ID:20180908063518     3
 OLDACT:UP  19-06-12 13:23 OP:rob  STATUS:               ID:20180908063518     3
 OLDACT:ARG 19-06-06 12:26 OP:rob  STATUS:               ID:20180908063518     3
 ACTION:UP  21-04-08 15:58 OP:rosa STATUS:               ID:20180908063518     3
 ACTION:SPL 22-05-19 10:01 OP:hele STATUS:               ID:20180908063518     I
 STAT SP IPHASW D HRMM SECON CODA AMPLIT PERI AZIMU VELO AIN AR TRES W  DIS CAZ7
 FRE  HE ES        636 38.18                             144   0.0001050.50  89 
 LVN  HZ EP   1    636 28.86                             142   0.020 754.50 205 
 LVN  HE ES        636 38.74                             142   -.0101054.50 205 
 JUBA HZ EP   1    636 29.82                             136   -.020 765.90  92 
 JUBA HE ES   2    636 40.50                             136   0.020 565.90  92 
 JUBA HE  IAML     636 42.63        58.0 2.31                         65.90  92 
 
 2018  910 1846 10.4SL -62.931 -61.581 5.00  BRA  6 .30 1.7LBRA                1
 GAP=270       0.510       3.8    16.3  4.7 -0.2829E+02 -0.5286E+02  0.1159E+02E
 2018-09-10-1845-19S.NSN___021                                                 6
 2018-09-10-1845-50M.NSN___020                                                 6
 OLDACT:UP  21-04-08 16:11 OP:rosa STATUS:               ID:20180910184519     3
 OLDACT:UP  21-04-08 16:10 OP:rosa STATUS:               ID:20180910184519     3
 OLDACT:UP  21-04-08 16:09 OP:rosa STATUS:               ID:20180910184519     3
 OLDACT:UP  21-04-08 16:08 OP:rosa STATUS:               ID:20180910184519     3
 OLDACT:UP  21-04-08 16:08 OP:rosa STATUS:               ID:20180910184519     3
 OLDACT:UP  21-04-08 16:07 OP:rosa STATUS:               ID:20180910184519     3
 OLDACT:UP  19-06-17 15:56 OP:rob  STATUS:               ID:20180910184519     3
 OLDACT:UP  19-06-17 15:56 OP:rob  STATUS:               ID:20180910184519     3
 OLDACT:UP  19-06-12 13:33 OP:rob  STATUS:               ID:20180910184519     3
 OLDACT:ARG 19-06-06 12:26 OP:rob  STATUS:               ID:20180910184519     3
 ACTION:UP  21-06-24 11:27 OP:rosa STATUS:               ID:20180910184519     3
 ACTION:SPL 22-05-19 10:01 OP:hele STATUS:               ID:20180910184519     I
 STAT SP IPHASW D HRMM SECON CODA AMPLIT PERI AZIMU VELO AIN AR TRES W  DIS CAZ7
 BYE  HZ EP   1   1846 18.14                              93   -.040 738.40  40 
 BYE  HE ES   2   1846 24.12                              93   0.280 538.40  40 
 BYE  HE  IAML    1846 24.89        22.3 0.40                         38.40  40 
 LVN  HZ EP   1   1846 22.61                              50   -.400 767.80  64 
 LVN  HE ES       1846 31.98                              50   -.2201067.80  64 
 LVN  HE  IAML    1846 32.23       144.6 0.26                         67.80  64 
 TOW  HE ES   2   1846 44.58                              50   0.250 5117.0 130 
 FRE  HZ EP   2   1846 35.77                              45   0.060 5157.0  60 
 FRE  HE ES   2   1846 54.48                              45   0.300 5157.0  60 
 JUBA HZ EP   1   1846 37.52                              45   0.250 7169.0  64 
 JUBA HE ES   2   1846 57.38                              45   0.510 5169.0  64 
 OHG  HN ES   2   1847  1.90                              45   -.080 5191.0 105 
 
 2018  912  136 20.8SL -62.652 -59.854 13.8  BRA  7 .20 2.0LBRA                1
 GAP=135       0.540       1.2     2.6  2.2 -0.6113E+00 -0.2804E+01  0.3518E+00E
 18.0      58.0    -180.0 15.0 25.0 10.0  0.0  0.1           TES FPFIT    F
 2018-09-12-0135-31S.NSN___024                                                 6
 2018-09-12-0136-01M.NSN___020                                                 6
 OLDACT:UP  21-04-08 16:27 OP:rosa STATUS:               ID:20180912013531     3
 OLDACT:UP  19-06-17 16:00 OP:rob  STATUS:               ID:20180912013531     3
 OLDACT:UP  19-06-17 15:59 OP:rob  STATUS:               ID:20180912013531     3
 OLDACT:UP  19-06-12 13:37 OP:rob  STATUS:               ID:20180912013531     3
 OLDACT:ARG 19-06-06 12:26 OP:rob  STATUS:               ID:20180912013531     3
 ACTION:UP  21-06-24 11:28 OP:rosa STATUS:               ID:20180912013531     3
 ACTION:SPL 22-05-19 10:01 OP:hele STATUS:               ID:20180912013531     I
 STAT SP IPHASW D HRMM SECON CODA AMPLIT PERI AZIMU VELO AIN AR TRES W  DIS CAZ7
 LVN  HZ EP     D  136 26.49                              93   -.1101027.40 267 
 LVN  HE ES   2    136 30.16                              93   -.670 527.40 267 
 BYE  HZ EP     D  136 31.87                              91   0.0301063.90 268 
 BYE  HE ES        136 40.09                              91   0.1901063.90 268 
 FRE  HZ EP        136 32.36                              91   -.0401067.70  43 
 FRE  HE ES        136 40.57                              91   -.3001067.70  43 
 FRE  HE  IAML     136 41.13        86.9 0.36                         67.70  43 
 JUBA HZ EP     D  136 33.97                              91   0.2501076.90  54 
 JUBA HE ES        136 43.32                              91   0.1701076.90  54 
 AST  HZ EP        136 36.25                              91   -.1101095.20 143 
 AST  HE ES        136 47.47                              91   -.2401095.20 143 
 TOW  HZ EP        136 37.68                              90   -.06010105.0 178 
 TOW  HE ES        136 50.26                              90   0.15010105.0 178 
 OHG  HZ EP        136 40.77                              90   0.25010124.0 128 
 OHG  HE ES   2    136 54.86                              90   -.050 5124.0 128 
 
 2018  920  038 44.4BL -62.750 -59.334 0.10  BRA  7 .20 2.8LBRA                1
 GAP=100       0.580     1.000          3.2 -0.1802E+00 -0.1102E+00 -0.5228E-01E
 58.0      38.0    -102.0 17.0 29.0 20.0  0.0  0.1           TES FPFIT    F
 2018-09-20-0037-54S.NSN___024                                                 6
 2018-09-20-0038-24M.NSN___020                                                 6
 OLDACT:UP  21-06-24 11:29 OP:rosa STATUS:               ID:20180920003754     3
 OLDACT:UP  21-04-08 16:32 OP:rosa STATUS:               ID:20180920003754     3
 OLDACT:UP  21-04-08 16:31 OP:rosa STATUS:               ID:20180920003754     3
 OLDACT:UP  19-06-17 16:03 OP:rob  STATUS:               ID:20180920003754     3
 OLDACT:UP  19-06-12 15:02 OP:rob  STATUS:               ID:20180920003754     3
 OLDACT:ARG 19-06-06 12:26 OP:rob  STATUS:               ID:20180920003754     3
 ACTION:UP  21-06-24 11:29 OP:rosa STATUS:               ID:20180920003754     3
 ACTION:SPL 22-05-19 10:01 OP:hele STATUS:               ID:20180920003754     I
 STAT SP IPHASW D HRMM SECON CODA AMPLIT PERI AZIMU VELO AIN AR TRES W  DIS CAZ7
 LVN  HZ EP        038 53.61                              47   -.4501054.80 280 
 LVN  HE ES   2    039  0.85                              47   -.280 554.80 280 
 FRE  HZ EP     C  038 55.14                              47   -.2501063.50  18 
 FRE  HE ES        039  3.37                              47   -.0601063.50  18 
 JUBA HZ EP     C  038 55.85                              47   -.0401066.80  31 
 JUBA HE ES        039  4.63                              47   0.3401066.80  31 
 JUBA HE  IAML     039  6.31       508.6 0.74                         66.80  31 
 AST  HZ EP        038 56.67                              47   0.0301071.80 154 
 AST  HE ES        039  5.67                              47   0.0701071.80 154 
 BYE  HZ EP        038 59.62                              47   0.1001090.80 275 
 BYE  HE ES        039 10.96                              47   0.3901090.80 275 
 TOW  HZ EP     C  039  0.33                              47   -.0501096.50 193 
 TOW  HE ES        039 12.12                              47   0.0501096.50 193 
 OHG  HZ EP     D  039  0.33                              47   -.0801096.70 132 
 OHG  HE ES   2 D  039 12.16                              47   0.040 596.70 132 
 
 2018  920  211  0.8SL -63.385 -57.722150.0  BRA  3 .20 0.8LBRA                1
 GAP=308       0.490      32.3    23.1  6.2 -0.5839E+03 -0.6843E+02  0.1331E+03E
 2018-09-20-0210-23S.NSN___021                                                 6
 2018-09-20-0210-41M.NSN___020                                                 6
 OLDACT:UP  21-06-24 11:31 OP:rosa STATUS:               ID:20180920021023     3
 OLDACT:UP  21-04-08 16:34 OP:rosa STATUS:               ID:20180920021023     3
 OLDACT:UP  19-06-17 16:05 OP:rob  STATUS:               ID:20180920021023     3
 OLDACT:UP  19-06-12 15:08 OP:rob  STATUS:               ID:20180920021023     3
 OLDACT:ARG 19-06-06 12:26 OP:rob  STATUS:               ID:20180920021023     3
 ACTION:UP  21-06-24 11:31 OP:rosa STATUS:               ID:20180920021023     3
 ACTION:SPL 22-05-19 10:01 OP:hele STATUS:               ID:20180920021023     I
 STAT SP IPHASW D HRMM SECON CODA AMPLIT PERI AZIMU VELO AIN AR TRES W  DIS CAZ7
 OHG  HZ EP        211 21.25                             175   -.1401011.20 308 
 OHG  HE ES        211 36.47                             175   0.0801011.20 308 
 OHG  HE  IAML     211 38.99         1.4 0.32                         11.20 308 
 AST  HZ EP        211 22.32                             160   -.0801049.50 277 
 AST  HE ES        211 38.18                             160   0.0501049.50 277 
 TOW  HZ EP        211 25.99                             141   0.22010105.0 256 
 TOW  HN ES   2    211 43.45                             141   -.510 5105.0 256 
 
