 2018  812 20 9  2.3FL -61.455 -56.830 15.2  BRA  3 .10 1.1LBRA                1
 GAP=355       0.390      23.8    44.4  7.7 -0.1005E+04  0.2028E+03 -0.1102E+03E
 2018-08-12-2008-22S.NSN___024                                                 6
 2018-08-12-2008-42M.NSN___020                                                 6
 OLDACT:UP  21-06-24 09:44 OP:rosa STATUS:               ID:20180812200822     3
 OLDACT:UP  21-06-24 09:43 OP:rosa STATUS:               ID:20180812200822     3
 OLDACT:UP  21-04-07 21:39 OP:rosa STATUS:               ID:20180812200822     3
 OLDACT:UP  21-04-07 21:39 OP:rosa STATUS:               ID:20180812200822     3
 OLDACT:UP  21-04-07 21:38 OP:rosa STATUS:               ID:20180812200822     3
 OLDACT:UP  21-04-07 21:38 OP:rosa STATUS:               ID:20180812200822     3
 OLDACT:UP  19-06-14 12:25 OP:rob  STATUS:               ID:20180812200822     3
 OLDACT:UP  19-06-11 18:41 OP:rob  STATUS:               ID:20180812200822     3
 OLDACT:ARG 19-06-06 12:26 OP:rob  STATUS:               ID:20180812200822     3
 ACTION:UP  21-06-24 09:44 OP:rosa STATUS:               ID:20180812200822     3
 ACTION:SPL 22-05-19 10:01 OP:hele STATUS:               ID:20180812200822     I
 STAT SP IPHASW D HRMM SECON CODA AMPLIT PERI AZIMU VELO AIN AR TRES W  DIS CAZ7
 JUBA HZ EP       20 9 21.85                              94   0.16010130.0 227 
 JUBA HE ES   2   20 9 35.60                              94   -.230 5130.0 227 
 FRE  HZ EP       20 9 23.09                              93   -.02010140.0 232 
 FRE  HE ES   2   20 9 38.21                              93   -.080 5140.0 232 
 FRE  HE  IAML    20 9 39.20         3.1 0.20                         140.0 232 
 LVN  HZ EP       20 9 34.96                              69   -.12010230.0 233 
 LVN  HN ES   2   20 9 59.22                              69   0.230 5230.0 233 
 
 2018  818  145 12.9SL -61.816 -60.960 25.4  BRA  4 .10 1.0LBRA                1
 GAP=288       0.420       3.1     8.5  6.5 -0.1707E+02 -0.4488E+02  0.6997E+01E
 2018-08-18-0144-28S.NSN___024                                                 6
 2018-08-18-0144-53M.NSN___020                                                 6
 OLDACT:UP  19-06-14 12:36 OP:rob  STATUS:               ID:20180818014428     3
 OLDACT:UP  19-06-11 19:14 OP:rob  STATUS:               ID:20180818014428     3
 OLDACT:ARG 19-06-06 12:26 OP:rob  STATUS:               ID:20180818014428     3
 ACTION:UP  21-06-24 10:03 OP:rosa STATUS:               ID:20180818014428     3
 ACTION:SPL 22-05-19 10:01 OP:hele STATUS:               ID:20180818014428     I
 STAT SP IPHASW D HRMM SECON CODA AMPLIT PERI AZIMU VELO AIN AR TRES W  DIS CAZ7
 BYE  HZ IP        145 28.27                              90   0.1001095.10 184 
 BYE  HE ES        145 39.18                              90   -.1701095.10 184 
 LVN  HZ IP     C  145 28.66                              90   -.0301099.00 163 
 LVN  HE ES        145 40.32                              90   0.0701099.00 163 
 FRE  HZ IP     C  145 30.70                              90   0.09010113.0 113 
 FRE  HE ES        145 43.37                              90   -.21010113.0 113 
 FRE  HE  IAML     145 44.47         3.4 0.12                         113.0 113 
 JUBA HZ EP        145 32.67                              90   -.04010129.0 112 
 JUBA HE ES        145 47.39                              90   0.19010129.0 112 
 AST  HZ IP   4    145 35.62                              90   -7.14 0205.0 146 
 AST  HE ES   4    145 42.62                              90   -22.0 0205.0 146 
 
 2018  818  842 58.6 L -62.750 -59.317 0.10  BRA  5 .20 0.6LBRA                1
 GAP=124       0.520       1.2     2.4  3.3 -0.3138E+00  0.5226E+00 -0.3653E+00E
 2018-08-18-0842-12S.NSN___024                                                 6
 2018-08-18-0842-39M.NSN___020                                                 6
 OLDACT:UP  19-06-14 12:38 OP:rob  STATUS:               ID:20180818084212     3
 OLDACT:UP  19-06-11 19:17 OP:rob  STATUS:               ID:20180818084212     3
 OLDACT:ARG 19-06-06 12:26 OP:rob  STATUS:               ID:20180818084212     3
 ACTION:UP  21-06-24 10:05 OP:rosa STATUS:               ID:20180818084212     3
 ACTION:SPL 22-05-19 10:01 OP:hele STATUS:               ID:20180818084212     I
 STAT SP IPHASW D HRMM SECON CODA AMPLIT PERI AZIMU VELO AIN AR TRES W  DIS CAZ7
 LVN  HZ EP        843  7.93                              47   -.2301055.60 280 
 LVN  HE ES        843 14.85                              47   -.2701055.60 280 
 FRE  HZ EP        843  9.20                              47   -.1101063.20  17 
 FRE  HE ES        843 17.15                              47   0.0401063.20  17 
 JUBA HZ EP        843  9.72                              47   -.0601066.30  31 
 JUBA HE ES        843 18.02                              47   0.1001066.30  31 
 JUBA HZ  IAML     843 18.71         5.9 0.22                         66.30  31 
 AST  HZ IP        843 10.67                              47   0.1101071.50 154 
 AST  HE ES        843 19.21                              47   -.0601071.50 154 
 BYE  HZ EP        843 13.70                              47   0.0901091.70 275 
 BYE  HE ES        843 24.94                              47   0.3801091.70 275 
 BYE  HE  IAML     843 25.59         1.2 0.20                         91.70 275 
 
 2018  820 1626 44.7SL -61.750 -59.253 8.90  BRA  4 .20 1.5LBRA                1
 GAP=288       0.430      18.0     5.9 20.5  0.7718E+02  0.8729E+02  0.3642E+03E
 2018-08-20-1625-52S.NSN___024                                                 6
 2018-08-20-1626-25M.NSN___020                                                 6
 OLDACT:UP  21-04-07 22:01 OP:rosa STATUS:               ID:20180820162552     3
 OLDACT:UP  19-06-14 12:47 OP:rob  STATUS:               ID:20180820162552     3
 OLDACT:UP  19-06-12 10:14 OP:rob  STATUS:               ID:20180820162552     3
 OLDACT:ARG 19-06-06 12:26 OP:rob  STATUS:               ID:20180820162552     3
 ACTION:UP  21-06-24 10:09 OP:rosa STATUS:               ID:20180820162552     3
 ACTION:SPL 22-05-19 10:01 OP:hele STATUS:               ID:20180820162552     I
 STAT SP IPHASW D HRMM SECON CODA AMPLIT PERI AZIMU VELO AIN AR TRES W  DIS CAZ7
 FRE  HZ EP     C 1626 54.92                              50   0.2001053.20 163 
 FRE  HE ES       1627  2.01                              50   -.0201053.20 163 
 FRE  HE  IAML    1627  2.17        35.7 0.12                         53.20 163 
 JUBA HZ IP     C 1626 56.10                              50   0.0301062.50 151 
 JUBA HE ES   2   1627  4.01                              50   -.340 562.50 151 
 LVN  HZ EP       1627  3.85                              50   -.15010118.0 210 
 LVN  HE ES       1627 18.07                              50   -.00010118.0 210 
 BYE  HZ EP       1627  7.17                              50   -.08010140.0 222 
 BYE  HE ES   2   1627 24.10                              50   0.410 5140.0 222 
 
 2018  824  4 2  6.6SL -62.601 -61.243 17.8  BRA  5 .30 1.3LBRA                1
 GAP=284       0.580       2.8     8.6  2.8 -0.7733E+01 -0.2851E+01  0.7244E-01E
 2018-08-24-0401-10S.NSN___024                                                 6
 2018-08-24-0401-47M.NSN___020                                                 6
 OLDACT:UP  21-06-24 10:09 OP:rosa STATUS:               ID:20180824040110     3
 OLDACT:UP  21-04-07 22:07 OP:rosa STATUS:               ID:20180824040110     3
 OLDACT:UP  21-04-07 22:06 OP:rosa STATUS:               ID:20180824040110     3
 OLDACT:UP  19-06-14 12:49 OP:rob  STATUS:               ID:20180824040110     3
 OLDACT:UP  19-06-12 10:28 OP:rob  STATUS:               ID:20180824040110     3
 OLDACT:ARG 19-06-06 12:26 OP:rob  STATUS:               ID:20180824040110     3
 ACTION:UP  21-06-24 10:10 OP:rosa STATUS:               ID:20180824040110     3
 ACTION:SPL 22-05-19 10:01 OP:hele STATUS:               ID:20180824040110     I
 STAT SP IPHASW D HRMM SECON CODA AMPLIT PERI AZIMU VELO AIN AR TRES W  DIS CAZ7
 BYE  HZ IP     C  4 2 10.61                             141   0.1601010.40 135 
 BYE  HE ES   2    4 2 13.57                             141   0.310 510.40 135 
 LVN  HZ IP     C  4 2 14.77                              99   -.1401044.40  99 
 LVN  HE ES        4 2 20.75                              99   -.2201044.40  99 
 FRE  HZ EP     C  4 2 26.30                              68   -.12010126.0  71 
 FRE  HE ES   2    4 2 41.01                              68   0.120 5126.0  71 
 FRE  HE  IAML     4 2 41.59         5.9 0.16                         126.0  71 
 TOW  HZ EP        4 2 27.00                              68   -.34010133.0 147 
 TOW  HE ES        4 2 42.70                              68   0.22010133.0 147 
 JUBA HZ EP        4 2 28.39                              68   0.17010139.0  74 
 JUBA HE ES   2    4 2 44.59                              68   0.600 5139.0  74 
 
 2018  825  448  4.3SL -62.868 -61.957 48.1  BRA  5 .30 1.8LBRA                1
 GAP=296       0.630       4.7    13.1  6.8 -0.2740E+02 -0.5885E+01  0.1251E+02E
 2018-08-25-0447-15S.NSN___024                                                 6
 2018-08-25-0447-44M.NSN___020                                                 6
 OLDACT:UP  21-04-07 23:03 OP:rosa STATUS:               ID:20180825044715     3
 OLDACT:UP  21-04-07 22:19 OP:rosa STATUS:               ID:20180825044715     3
 OLDACT:UP  19-06-14 12:53 OP:rob  STATUS:               ID:20180825044715     3
 OLDACT:UP  19-06-12 10:42 OP:rob  STATUS:               ID:20180825044715     3
 OLDACT:ARG 19-06-06 12:26 OP:rob  STATUS:               ID:20180825044715     3
 ACTION:UP  21-06-24 10:10 OP:rosa STATUS:               ID:20180825044715     3
 ACTION:SPL 22-05-19 10:01 OP:hele STATUS:               ID:20180825044715     I
 STAT SP IPHASW D HRMM SECON CODA AMPLIT PERI AZIMU VELO AIN AR TRES W  DIS CAZ7
 BYE  HZ EP        448 14.91                             129   0.1201049.30  63 
 BYE  HE ES        448 22.54                             129   0.0701049.30  63 
 BYE  HE  IAML     448 22.85        56.4 0.24                         49.30  63 
 LVN  HZ EP   1    448 18.48                             113   -.240 783.40  75 
 LVN  HE ES        448 29.04                             113   -.2301083.40  75 
 TOW  HZ EP     D  448 25.23                             103   -.15010136.0 127 
 TOW  HE ES   2    448 41.28                             103   0.490 5136.0 127 
 FRE  HZ EP   2    448 29.81                             100   -.160 5171.0  66 
 FRE  HE ES        448 48.58                             100   -.15010171.0  66 
 JUBA HZ EP   2    448 32.31                              99   0.690 5183.0  69 
 JUBA HE ES   2    448 52.41                              99   0.820 5183.0  69 
 
 2018  826 2050 20.5SL -61.262 -56.620 0.00  BRA  5 .30 2.0LBRA                1
 GAP=321       0.450      88.1   121.4 53.9  0.1061E+05  0.6518E+04  0.4739E+04E
 2018-08-26-2049-46S.NSN___024                                                 6
 2018-08-26-2050-01M.NSN___020                                                 6
 OLDACT:UP  21-04-07 22:25 OP:rosa STATUS:               ID:20180826204946     3
 OLDACT:UP  21-04-07 22:24 OP:rosa STATUS:               ID:20180826204946     3
 OLDACT:UP  21-04-07 22:23 OP:rosa STATUS:               ID:20180826204946     3
 OLDACT:UP  21-04-07 22:22 OP:rosa STATUS:               ID:20180826204946     3
 OLDACT:UP  21-04-07 22:21 OP:rosa STATUS:               ID:20180826204946     3
 OLDACT:UP  21-04-07 22:20 OP:rosa STATUS:               ID:20180826204946     3
 OLDACT:UP  19-06-14 12:54 OP:rob  STATUS:               ID:20180826204946     3
 OLDACT:UP  19-06-12 11:01 OP:rob  STATUS:               ID:20180826204946     3
 OLDACT:ARG 19-06-06 12:26 OP:rob  STATUS:               ID:20180826204946     3
 ACTION:UP  21-06-24 11:00 OP:rosa STATUS:               ID:20180826204946     3
 ACTION:SPL 22-05-19 10:01 OP:hele STATUS:               ID:20180826204946     I
 STAT SP IPHASW D HRMM SECON CODA AMPLIT PERI AZIMU VELO AIN AR TRES W  DIS CAZ7
 JUBA HZ EP       2050 46.02                              29   -.22010153.0 224 
 JUBA HE ES   4   2051  3.87                              29   -1.12 0153.0 224 
 FRE  HZ EP   2   2050 48.10                              29   0.630 5162.0 229 
 FRE  HE ES   2   2051  7.18                              29   0.050 5162.0 229 
 FRE  HE  IAML    2051 10.23        20.8 0.36                         162.0 229 
 OHG  HZ EP   2   2050 57.53                              29   -.150 5239.0 196 
 OHG  HE ES   2   2051 24.97                              29   0.180 5239.0 196 
 LVN  HZ EP   2   2050 59.45                              29   0.060 5252.0 230 
 LVN  HN ES   2   2051 27.55                              29   -.200 5252.0 230 
 BYE  HZ EP   2   2051  3.73                              29   0.280 5282.0 234 
 BYE  HN ES   2   2051 34.78                              29   0.010 5282.0 234 
 
 2018  827 20 9 21.9FL -61.648 -58.363 61.4  BRA  7 .30 5.4LBRA 3.4CBRA        1
 GAP=303       0.640       6.0    10.6  6.1  0.1599E+02 -0.3336E+01 -0.9981E+01E
 61.0      28.0      18.0 35.0 26.0 60.0  0.1  0.2           TES FPFIT    F
 2018-08-27-2008-34S.NSN___024                                                 6
 2018-08-27-2009-02M.NSN___020                                                 6
 OLDACT:UP  21-04-08 11:09 OP:rosa STATUS:               ID:20180827200834     3
 OLDACT:UP  21-04-07 22:39 OP:rosa STATUS:               ID:20180827200834     3
 OLDACT:UP  21-04-07 22:38 OP:rosa STATUS:               ID:20180827200834     3
 OLDACT:UP  21-04-07 22:37 OP:rosa STATUS:               ID:20180827200834     3
 OLDACT:UP  21-04-07 22:37 OP:rosa STATUS:               ID:20180827200834     3
 OLDACT:UP  21-04-07 22:37 OP:rosa STATUS:               ID:20180827200834     3
 OLDACT:UP  19-06-14 12:58 OP:rob  STATUS:               ID:20180827200834     3
 OLDACT:UP  19-06-14 12:57 OP:rob  STATUS:               ID:20180827200834     3
 OLDACT:UP  19-06-12 11:11 OP:rob  STATUS:               ID:20180827200834     3
 OLDACT:ARG 19-06-06 12:26 OP:rob  STATUS:               ID:20180827200834     3
 ACTION:UP  21-06-24 11:04 OP:rosa STATUS:               ID:20180827200834     3
 ACTION:SPL 22-05-19 10:01 OP:hele STATUS:               ID:20180827200834     I
 STAT SP IPHASW D HRMM SECON CODA AMPLIT PERI AZIMU VELO AIN AR TRES W  DIS CAZ7
 FRE  HE ES   4   20 9 43.71                             127   -.370 069.70 207 
 LVN  HE ES   2   2010  0.50                             105   -.630 5155.0 222 
 LVN  HE  IAML    2010  3.06     25767.3 0.32                         155.0 222 
 BYE  HZ IP     D 20 9 47.98                             102   -.00010182.0 230 
 BYE  HE ES   2   2010  7.80                             102   0.760 5182.0 230 
 AST  HE ES   2   2010  8.94                             101   0.670 5188.0 185 
 OHG  HE ES   2   2010  8.72                             101   0.420 5188.0 173 
 TOW  HZ EP     D 20 9 53.63  128                         98          229.0 198 
 TOW  HE ES   2   2010 16.92                              98   -.170 5229.0 198 
 OHG  HZ EP     D 20 9 48.93                             101          188.0 173 
 LVN  HZ EP     D 20 9 44.65                             105          155.0 222 
 JUBA HZ EP     D 20 9 34.69                             128          67.50 193 
 AST  HZ EP     D 20 9 48.50  113                        101          188.0 185 
 JUBA HE ES       20 9 43.50                             128   -.2001067.50 193 
 JUBA HE  IAML    20 9 46.41      33.7e4 2.95                         67.50 193 
 FRE  HZ EP     D 20 9 34.83                             127          69.70 207 
 
 2018  827 2024  6.1FL -61.749 -58.284 58.0  BRA  5 .10 1.0LBRA                1
 GAP=313       0.360       3.3     6.1  3.5  0.3028E+01  0.4575E+01  0.9729E+00E
 2018-08-27-2023-18S.NSN___024                                                 6
 2018-08-27-2023-46M.NSN___020                                                 6
 OLDACT:UP  21-06-24 11:05 OP:rosa STATUS:               ID:20180827202318     3
 OLDACT:UP  21-04-07 22:40 OP:rosa STATUS:               ID:20180827202318     3
 OLDACT:UP  19-06-14 13:00 OP:rob  STATUS:               ID:20180827202318     3
 OLDACT:UP  19-06-12 11:15 OP:rob  STATUS:               ID:20180827202318     3
 OLDACT:ARG 19-06-06 12:26 OP:rob  STATUS:               ID:20180827202318     3
 ACTION:UP  21-06-24 11:05 OP:rosa STATUS:               ID:20180827202318     3
 ACTION:SPL 22-05-19 10:01 OP:hele STATUS:               ID:20180827202318     I
 STAT SP IPHASW D HRMM SECON CODA AMPLIT PERI AZIMU VELO AIN AR TRES W  DIS CAZ7
 JUBA HZ EP       2024 17.64                             131   0.1801058.00 200 
 JUBA HE ES       2024 25.80                             131   0.0101058.00 200 
 FRE  HZ EP       2024 17.80                             128   -.0701062.20 214 
 FRE  HE ES       2024 26.42                             128   -.0801062.20 214 
 FRE  HE  IAML    2024 27.19         5.5 0.20                         62.20 214 
 LVN  HZ EP   2   2024 27.65                             104   -.360 5150.0 226 
 LVN  HE ES   2   2024 44.07                             104   0.030 5150.0 226 
 AST  HZ EP   4   2024 32.13                             101   0.670 0177.0 187 
 AST  HE ES       2024 49.97                             101   -.03010177.0 187 
 BYE  HZ EP   4   2024 31.49                             101   -.140 0179.0 234 
 BYE  HE ES       2024 50.37                             101   0.06010179.0 234 
 
 2018  827 2120 44.0SL -62.894 -61.912 17.5  BRA  5 .20 1.2LBRA                1
 GAP=292       0.470       3.6    10.1  5.9 -0.1305E+02 -0.6875E+01  0.1466E+02E
 2018-08-27-2119-28S.NSN___024                                                 6
 2018-08-27-2120-24M.NSN___020                                                 6
 OLDACT:UP  21-06-24 11:06 OP:rosa STATUS:               ID:20180827211928     3
 OLDACT:UP  21-04-07 22:41 OP:rosa STATUS:               ID:20180827211928     3
 OLDACT:UP  21-04-07 22:41 OP:rosa STATUS:               ID:20180827211928     3
 OLDACT:UP  19-06-14 13:03 OP:rob  STATUS:               ID:20180827211928     3
 OLDACT:UP  19-06-12 11:21 OP:rob  STATUS:               ID:20180827211928     3
 OLDACT:ARG 19-06-06 12:26 OP:rob  STATUS:               ID:20180827211928     3
 ACTION:UP  21-06-24 11:08 OP:rosa STATUS:               ID:20180827211928     3
 ACTION:SPL 22-05-19 10:01 OP:hele STATUS:               ID:20180827211928     I
 STAT SP IPHASW D HRMM SECON CODA AMPLIT PERI AZIMU VELO AIN AR TRES W  DIS CAZ7
 BYE  HZ EP       2120 52.78                              97   -.0901048.60  59 
 BYE  HE ES       2120 59.53                              97   0.1701048.60  59 
 BYE  HE  IAML    2120 59.99        20.3 0.16                         48.60  59 
 LVN  HZ EP       2120 57.69                              94   0.0301082.00  72 
 LVN  HE ES   2   2121  7.19                              94   -.450 582.00  72 
 TOW  HZ EP       2121  4.80                              68   0.13010132.0 127 
 TOW  HE ES   2   2121 20.15                              68   0.380 5132.0 127 
 FRE  HZ EP       2121  9.68                              68   -.02010170.0  65 
 FRE  HN ES   2   2121 28.69                              68   0.220 5170.0  65 
 OHG  HZ EP   1   2121 14.51                              68   -.280 7208.0 105 
 OHG  HE ES   2   2121 36.87                              68   -.410 5208.0 105 
 
